{
"type": "FeatureCollection",
"name": "toes_proposed",
"crs": { "type": "name", "properties": { "name": "urn:ogc:def:crs:EPSG::6339" } },
"features": [
{ "type": "Feature", "properties": { "name": "North spoil dump", "kind": "pile", "source_survey": "osmre2023", "relief_m": 1.0, "pad_m": 2.0, "edge_contact": 0.008 }, "geometry": { "type": "Polygon", "coordinates": [ [ [ 575930.0, 5241513.0 ], [ 575931.0, 5241515.0 ], [ 575930.0, 5241515.0 ], [ 575930.0, 5241517.0 ], [ 575929.0, 5241517.0 ], [ 575929.0, 5241521.0 ], [ 575928.0, 5241521.0 ], [ 575928.0, 5241523.0 ], [ 575927.0, 5241523.0 ], [ 575927.0, 5241526.0 ], [ 575926.0, 5241526.0 ], [ 575926.0, 5241528.0 ], [ 575925.0, 5241528.0 ], [ 575925.0, 5241531.0 ], [ 575924.0, 5241531.0 ], [ 575924.0, 5241537.0 ], [ 575923.0, 5241537.0 ], [ 575923.0, 5241538.0 ], [ 575921.0, 5241539.0 ], [ 575921.0, 5241541.0 ], [ 575920.0, 5241541.0 ], [ 575919.0, 5241549.0 ], [ 575918.0, 5241549.0 ], [ 575918.0, 5241550.0 ], [ 575917.0, 5241550.0 ], [ 575917.0, 5241551.0 ], [ 575915.0, 5241552.0 ], [ 575914.0, 5241558.0 ], [ 575913.0, 5241558.0 ], [ 575913.0, 5241560.0 ], [ 575912.0, 5241560.0 ], [ 575912.0, 5241565.0 ], [ 575911.0, 5241565.0 ], [ 575911.0, 5241570.0 ], [ 575910.0, 5241570.0 ], [ 575910.0, 5241576.0 ], [ 575908.0, 5241577.0 ], [ 575909.0, 5241583.0 ], [ 575908.0, 5241583.0 ], [ 575908.0, 5241587.0 ], [ 575907.0, 5241587.0 ], [ 575907.0, 5241594.0 ], [ 575906.0, 5241594.0 ], [ 575906.0, 5241604.0 ], [ 575907.0, 5241604.0 ], [ 575907.0, 5241606.0 ], [ 575906.0, 5241606.0 ], [ 575907.0, 5241608.0 ], [ 575906.0, 5241608.0 ], [ 575906.0, 5241609.0 ], [ 575907.0, 5241609.0 ], [ 575907.0, 5241612.0 ], [ 575906.0, 5241612.0 ], [ 575906.0, 5241614.0 ], [ 575905.0, 5241614.0 ], [ 575905.0, 5241615.0 ], [ 575906.0, 5241615.0 ], [ 575906.0, 5241630.0 ], [ 575904.0, 5241631.0 ], [ 575904.0, 5241632.0 ], [ 575906.0, 5241633.0 ], [ 575906.0, 5241639.0 ], [ 575904.0, 5241639.0 ], [ 575904.0, 5241640.0 ], [ 575902.0, 5241641.0 ], [ 575902.0, 5241648.0 ], [ 575901.0, 5241648.0 ], [ 575901.0, 5241650.0 ], [ 575900.0, 5241650.0 ], [ 575900.0, 5241651.0 ], [ 575898.0, 5241651.0 ], [ 575898.0, 5241652.0 ], [ 575896.0, 5241653.0 ], [ 575896.0, 5241656.0 ], [ 575897.0, 5241656.0 ], [ 575896.0, 5241660.0 ], [ 575898.0, 5241661.0 ], [ 575898.0, 5241663.0 ], [ 575897.0, 5241663.0 ], [ 575897.0, 5241667.0 ], [ 575896.0, 5241667.0 ], [ 575896.0, 5241668.0 ], [ 575898.0, 5241669.0 ], [ 575898.0, 5241672.0 ], [ 575897.0, 5241672.0 ], [ 575897.0, 5241673.0 ], [ 575895.0, 5241674.0 ], [ 575895.0, 5241679.0 ], [ 575894.0, 5241679.0 ], [ 575894.0, 5241681.0 ], [ 575895.0, 5241681.0 ], [ 575895.0, 5241684.0 ], [ 575894.0, 5241684.0 ], [ 575894.0, 5241686.0 ], [ 575895.0, 5241686.0 ], [ 575895.0, 5241687.0 ], [ 575894.0, 5241687.0 ], [ 575894.0, 5241691.0 ], [ 575892.0, 5241692.0 ], [ 575893.0, 5241694.0 ], [ 575892.0, 5241694.0 ], [ 575892.0, 5241696.0 ], [ 575891.0, 5241696.0 ], [ 575891.0, 5241697.0 ], [ 575892.0, 5241697.0 ], [ 575892.0, 5241699.0 ], [ 575891.0, 5241699.0 ], [ 575891.0, 5241705.0 ], [ 575890.0, 5241705.0 ], [ 575890.0, 5241710.0 ], [ 575889.0, 5241710.0 ], [ 575889.0, 5241709.0 ], [ 575887.0, 5241709.0 ], [ 575887.0, 5241710.0 ], [ 575886.0, 5241710.0 ], [ 575886.0, 5241711.0 ], [ 575884.0, 5241712.0 ], [ 575884.0, 5241714.0 ], [ 575885.0, 5241714.0 ], [ 575886.0, 5241716.0 ], [ 575888.0, 5241716.0 ], [ 575888.0, 5241717.0 ], [ 575890.0, 5241718.0 ], [ 575890.0, 5241723.0 ], [ 575889.0, 5241723.0 ], [ 575889.0, 5241727.0 ], [ 575888.0, 5241727.0 ], [ 575888.0, 5241728.0 ], [ 575887.0, 5241728.0 ], [ 575887.0, 5241729.0 ], [ 575885.0, 5241730.0 ], [ 575885.0, 5241732.0 ], [ 575883.0, 5241733.0 ], [ 575883.0, 5241734.0 ], [ 575884.0, 5241734.0 ], [ 575885.0, 5241736.0 ], [ 575887.0, 5241736.0 ], [ 575887.0, 5241735.0 ], [ 575888.0, 5241735.0 ], [ 575888.0, 5241737.0 ], [ 575889.0, 5241737.0 ], [ 575889.0, 5241738.0 ], [ 575888.0, 5241738.0 ], [ 575888.0, 5241742.0 ], [ 575889.0, 5241742.0 ], [ 575889.0, 5241744.0 ], [ 575888.0, 5241744.0 ], [ 575888.0, 5241745.0 ], [ 575889.0, 5241745.0 ], [ 575889.0, 5241752.0 ], [ 575888.0, 5241752.0 ], [ 575888.0, 5241753.0 ], [ 575886.0, 5241753.0 ], [ 575886.0, 5241754.0 ], [ 575885.0, 5241754.0 ], [ 575885.0, 5241755.0 ], [ 575883.0, 5241756.0 ], [ 575883.0, 5241759.0 ], [ 575880.0, 5241759.0 ], [ 575880.0, 5241760.0 ], [ 575878.0, 5241761.0 ], [ 575878.0, 5241764.0 ], [ 575879.0, 5241764.0 ], [ 575879.0, 5241765.0 ], [ 575881.0, 5241766.0 ], [ 575881.0, 5241769.0 ], [ 575882.0, 5241769.0 ], [ 575882.0, 5241771.0 ], [ 575883.0, 5241771.0 ], [ 575883.0, 5241774.0 ], [ 575884.0, 5241774.0 ], [ 575884.0, 5241785.0 ], [ 575885.0, 5241785.0 ], [ 575886.0, 5241787.0 ], [ 575888.0, 5241787.0 ], [ 575888.0, 5241788.0 ], [ 575886.0, 5241789.0 ], [ 575886.0, 5241793.0 ], [ 575887.0, 5241793.0 ], [ 575888.0, 5241795.0 ], [ 575889.0, 5241795.0 ], [ 575889.0, 5241794.0 ], [ 575891.0, 5241794.0 ], [ 575891.0, 5241795.0 ], [ 575892.0, 5241795.0 ], [ 575892.0, 5241797.0 ], [ 575893.0, 5241797.0 ], [ 575893.0, 5241798.0 ], [ 575895.0, 5241799.0 ], [ 575895.0, 5241801.0 ], [ 575897.0, 5241802.0 ], [ 575897.0, 5241807.0 ], [ 575898.0, 5241807.0 ], [ 575898.0, 5241808.0 ], [ 575899.0, 5241808.0 ], [ 575900.0, 5241810.0 ], [ 575902.0, 5241810.0 ], [ 575902.0, 5241812.0 ], [ 575901.0, 5241812.0 ], [ 575901.0, 5241813.0 ], [ 575902.0, 5241813.0 ], [ 575902.0, 5241814.0 ], [ 575903.0, 5241814.0 ], [ 575903.0, 5241815.0 ], [ 575904.0, 5241815.0 ], [ 575904.0, 5241816.0 ], [ 575905.0, 5241816.0 ], [ 575905.0, 5241817.0 ], [ 575906.0, 5241817.0 ], [ 575907.0, 5241819.0 ], [ 575910.0, 5241819.0 ], [ 575910.0, 5241820.0 ], [ 575917.0, 5241820.0 ], [ 575917.0, 5241821.0 ], [ 575918.0, 5241821.0 ], [ 575918.0, 5241820.0 ], [ 575919.0, 5241820.0 ], [ 575919.0, 5241821.0 ], [ 575922.0, 5241821.0 ], [ 575922.0, 5241822.0 ], [ 575924.0, 5241822.0 ], [ 575924.0, 5241823.0 ], [ 575925.0, 5241823.0 ], [ 575925.0, 5241825.0 ], [ 575926.0, 5241825.0 ], [ 575927.0, 5241827.0 ], [ 575931.0, 5241826.0 ], [ 575932.0, 5241828.0 ], [ 575939.0, 5241828.0 ], [ 575939.0, 5241829.0 ], [ 575942.0, 5241829.0 ], [ 575942.0, 5241832.0 ], [ 575943.0, 5241832.0 ], [ 575944.0, 5241834.0 ], [ 575951.0, 5241834.0 ], [ 575952.0, 5241836.0 ], [ 575956.0, 5241836.0 ], [ 575956.0, 5241837.0 ], [ 575957.0, 5241837.0 ], [ 575958.0, 5241839.0 ], [ 575961.0, 5241839.0 ], [ 575961.0, 5241840.0 ], [ 575965.0, 5241840.0 ], [ 575965.0, 5241841.0 ], [ 575967.0, 5241841.0 ], [ 575967.0, 5241842.0 ], [ 575972.0, 5241842.0 ], [ 575972.0, 5241843.0 ], [ 575974.0, 5241843.0 ], [ 575974.0, 5241844.0 ], [ 575975.0, 5241844.0 ], [ 575976.0, 5241846.0 ], [ 575979.0, 5241846.0 ], [ 575980.0, 5241844.0 ], [ 575985.0, 5241844.0 ], [ 575985.0, 5241845.0 ], [ 575992.0, 5241845.0 ], [ 575992.0, 5241844.0 ], [ 575994.0, 5241844.0 ], [ 575994.0, 5241843.0 ], [ 576004.0, 5241843.0 ], [ 576004.0, 5241842.0 ], [ 576009.0, 5241842.0 ], [ 576009.0, 5241843.0 ], [ 576013.0, 5241843.0 ], [ 576014.0, 5241845.0 ], [ 576022.0, 5241845.0 ], [ 576022.0, 5241844.0 ], [ 576040.0, 5241844.0 ], [ 576040.0, 5241843.0 ], [ 576048.0, 5241843.0 ], [ 576049.0, 5241841.0 ], [ 576051.0, 5241841.0 ], [ 576051.0, 5241840.0 ], [ 576053.0, 5241839.0 ], [ 576052.0, 5241837.0 ], [ 576055.0, 5241837.0 ], [ 576056.0, 5241835.0 ], [ 576061.0, 5241835.0 ], [ 576061.0, 5241834.0 ], [ 576069.0, 5241834.0 ], [ 576070.0, 5241836.0 ], [ 576073.0, 5241836.0 ], [ 576073.0, 5241835.0 ], [ 576074.0, 5241835.0 ], [ 576074.0, 5241834.0 ], [ 576076.0, 5241834.0 ], [ 576076.0, 5241833.0 ], [ 576080.0, 5241833.0 ], [ 576080.0, 5241832.0 ], [ 576081.0, 5241832.0 ], [ 576081.0, 5241831.0 ], [ 576082.0, 5241831.0 ], [ 576082.0, 5241830.0 ], [ 576083.0, 5241830.0 ], [ 576084.0, 5241828.0 ], [ 576086.0, 5241828.0 ], [ 576086.0, 5241829.0 ], [ 576090.0, 5241829.0 ], [ 576090.0, 5241830.0 ], [ 576092.0, 5241830.0 ], [ 576092.0, 5241831.0 ], [ 576095.0, 5241831.0 ], [ 576096.0, 5241833.0 ], [ 576097.0, 5241833.0 ], [ 576097.0, 5241832.0 ], [ 576099.0, 5241832.0 ], [ 576099.0, 5241833.0 ], [ 576102.0, 5241833.0 ], [ 576102.0, 5241832.0 ], [ 576107.0, 5241832.0 ], [ 576107.0, 5241833.0 ], [ 576108.0, 5241833.0 ], [ 576108.0, 5241834.0 ], [ 576110.0, 5241834.0 ], [ 576111.0, 5241836.0 ], [ 576113.0, 5241835.0 ], [ 576113.0, 5241836.0 ], [ 576117.0, 5241837.0 ], [ 576118.0, 5241839.0 ], [ 576121.0, 5241839.0 ], [ 576121.0, 5241840.0 ], [ 576125.0, 5241840.0 ], [ 576125.0, 5241841.0 ], [ 576127.0, 5241841.0 ], [ 576127.0, 5241842.0 ], [ 576137.0, 5241842.0 ], [ 576137.0, 5241841.0 ], [ 576138.0, 5241841.0 ], [ 576138.0, 5241842.0 ], [ 576144.0, 5241843.0 ], [ 576144.0, 5241842.0 ], [ 576147.0, 5241842.0 ], [ 576147.0, 5241841.0 ], [ 576148.0, 5241841.0 ], [ 576148.0, 5241842.0 ], [ 576149.0, 5241842.0 ], [ 576149.0, 5241843.0 ], [ 576151.0, 5241844.0 ], [ 576151.0, 5241843.0 ], [ 576153.0, 5241843.0 ], [ 576153.0, 5241842.0 ], [ 576156.0, 5241842.0 ], [ 576157.0, 5241840.0 ], [ 576158.0, 5241840.0 ], [ 576158.0, 5241841.0 ], [ 576161.0, 5241841.0 ], [ 576161.0, 5241840.0 ], [ 576169.0, 5241840.0 ], [ 576169.0, 5241839.0 ], [ 576175.0, 5241839.0 ], [ 576175.0, 5241840.0 ], [ 576177.0, 5241840.0 ], [ 576177.0, 5241839.0 ], [ 576180.0, 5241839.0 ], [ 576181.0, 5241841.0 ], [ 576183.0, 5241841.0 ], [ 576183.0, 5241840.0 ], [ 576184.0, 5241840.0 ], [ 576185.0, 5241838.0 ], [ 576187.0, 5241838.0 ], [ 576188.0, 5241840.0 ], [ 576190.0, 5241840.0 ], [ 576190.0, 5241839.0 ], [ 576191.0, 5241839.0 ], [ 576191.0, 5241838.0 ], [ 576193.0, 5241838.0 ], [ 576193.0, 5241837.0 ], [ 576194.0, 5241837.0 ], [ 576194.0, 5241836.0 ], [ 576195.0, 5241836.0 ], [ 576196.0, 5241834.0 ], [ 576199.0, 5241834.0 ], [ 576199.0, 5241833.0 ], [ 576210.0, 5241833.0 ], [ 576210.0, 5241834.0 ], [ 576214.0, 5241834.0 ], [ 576215.0, 5241832.0 ], [ 576217.0, 5241832.0 ], [ 576217.0, 5241831.0 ], [ 576219.0, 5241831.0 ], [ 576219.0, 5241830.0 ], [ 576228.0, 5241830.0 ], [ 576228.0, 5241831.0 ], [ 576229.0, 5241831.0 ], [ 576230.0, 5241833.0 ], [ 576232.0, 5241833.0 ], [ 576232.0, 5241832.0 ], [ 576234.0, 5241831.0 ], [ 576234.0, 5241829.0 ], [ 576238.0, 5241828.0 ], [ 576239.0, 5241826.0 ], [ 576240.0, 5241826.0 ], [ 576240.0, 5241827.0 ], [ 576241.0, 5241827.0 ], [ 576241.0, 5241828.0 ], [ 576243.0, 5241829.0 ], [ 576243.0, 5241828.0 ], [ 576245.0, 5241827.0 ], [ 576245.0, 5241825.0 ], [ 576247.0, 5241825.0 ], [ 576247.0, 5241826.0 ], [ 576248.0, 5241826.0 ], [ 576248.0, 5241825.0 ], [ 576250.0, 5241825.0 ], [ 576250.0, 5241824.0 ], [ 576251.0, 5241824.0 ], [ 576251.0, 5241823.0 ], [ 576252.0, 5241823.0 ], [ 576252.0, 5241822.0 ], [ 576253.0, 5241822.0 ], [ 576253.0, 5241821.0 ], [ 576254.0, 5241821.0 ], [ 576254.0, 5241820.0 ], [ 576255.0, 5241820.0 ], [ 576256.0, 5241818.0 ], [ 576258.0, 5241818.0 ], [ 576258.0, 5241819.0 ], [ 576259.0, 5241819.0 ], [ 576259.0, 5241818.0 ], [ 576260.0, 5241818.0 ], [ 576260.0, 5241817.0 ], [ 576262.0, 5241816.0 ], [ 576261.0, 5241814.0 ], [ 576264.0, 5241814.0 ], [ 576264.0, 5241815.0 ], [ 576266.0, 5241815.0 ], [ 576266.0, 5241816.0 ], [ 576267.0, 5241816.0 ], [ 576268.0, 5241818.0 ], [ 576270.0, 5241818.0 ], [ 576270.0, 5241819.0 ], [ 576271.0, 5241819.0 ], [ 576272.0, 5241817.0 ], [ 576276.0, 5241817.0 ], [ 576276.0, 5241818.0 ], [ 576278.0, 5241818.0 ], [ 576278.0, 5241817.0 ], [ 576287.0, 5241817.0 ], [ 576287.0, 5241816.0 ], [ 576289.0, 5241816.0 ], [ 576289.0, 5241817.0 ], [ 576291.0, 5241817.0 ], [ 576291.0, 5241816.0 ], [ 576293.0, 5241816.0 ], [ 576293.0, 5241817.0 ], [ 576303.0, 5241817.0 ], [ 576303.0, 5241816.0 ], [ 576304.0, 5241816.0 ], [ 576305.0, 5241814.0 ], [ 576308.0, 5241814.0 ], [ 576308.0, 5241813.0 ], [ 576311.0, 5241813.0 ], [ 576311.0, 5241814.0 ], [ 576313.0, 5241814.0 ], [ 576314.0, 5241812.0 ], [ 576316.0, 5241812.0 ], [ 576316.0, 5241811.0 ], [ 576319.0, 5241811.0 ], [ 576319.0, 5241812.0 ], [ 576320.0, 5241812.0 ], [ 576321.0, 5241810.0 ], [ 576328.0, 5241810.0 ], [ 576328.0, 5241811.0 ], [ 576329.0, 5241811.0 ], [ 576329.0, 5241810.0 ], [ 576333.0, 5241810.0 ], [ 576333.0, 5241811.0 ], [ 576335.0, 5241811.0 ], [ 576335.0, 5241810.0 ], [ 576339.0, 5241810.0 ], [ 576340.0, 5241808.0 ], [ 576341.0, 5241808.0 ], [ 576341.0, 5241809.0 ], [ 576343.0, 5241809.0 ], [ 576343.0, 5241810.0 ], [ 576346.0, 5241810.0 ], [ 576346.0, 5241809.0 ], [ 576347.0, 5241809.0 ], [ 576347.0, 5241810.0 ], [ 576351.0, 5241810.0 ], [ 576351.0, 5241809.0 ], [ 576353.0, 5241808.0 ], [ 576353.0, 5241806.0 ], [ 576352.0, 5241806.0 ], [ 576352.0, 5241805.0 ], [ 576351.0, 5241805.0 ], [ 576351.0, 5241804.0 ], [ 576350.0, 5241804.0 ], [ 576349.0, 5241802.0 ], [ 576347.0, 5241802.0 ], [ 576347.0, 5241801.0 ], [ 576344.0, 5241801.0 ], [ 576344.0, 5241800.0 ], [ 576340.0, 5241800.0 ], [ 576340.0, 5241798.0 ], [ 576343.0, 5241798.0 ], [ 576343.0, 5241797.0 ], [ 576347.0, 5241797.0 ], [ 576347.0, 5241796.0 ], [ 576349.0, 5241796.0 ], [ 576349.0, 5241797.0 ], [ 576350.0, 5241797.0 ], [ 576350.0, 5241796.0 ], [ 576354.0, 5241796.0 ], [ 576354.0, 5241795.0 ], [ 576356.0, 5241795.0 ], [ 576356.0, 5241796.0 ], [ 576358.0, 5241796.0 ], [ 576358.0, 5241795.0 ], [ 576367.0, 5241795.0 ], [ 576367.0, 5241794.0 ], [ 576369.0, 5241794.0 ], [ 576369.0, 5241793.0 ], [ 576374.0, 5241793.0 ], [ 576374.0, 5241792.0 ], [ 576378.0, 5241792.0 ], [ 576378.0, 5241791.0 ], [ 576389.0, 5241791.0 ], [ 576389.0, 5241790.0 ], [ 576391.0, 5241790.0 ], [ 576391.0, 5241789.0 ], [ 576393.0, 5241789.0 ], [ 576393.0, 5241788.0 ], [ 576402.0, 5241788.0 ], [ 576402.0, 5241787.0 ], [ 576404.0, 5241787.0 ], [ 576404.0, 5241786.0 ], [ 576419.0, 5241786.0 ], [ 576419.0, 5241785.0 ], [ 576423.0, 5241785.0 ], [ 576423.0, 5241784.0 ], [ 576425.0, 5241784.0 ], [ 576426.0, 5241782.0 ], [ 576428.0, 5241782.0 ], [ 576429.0, 5241780.0 ], [ 576430.0, 5241780.0 ], [ 576430.0, 5241781.0 ], [ 576432.0, 5241781.0 ], [ 576432.0, 5241780.0 ], [ 576434.0, 5241780.0 ], [ 576435.0, 5241778.0 ], [ 576438.0, 5241778.0 ], [ 576438.0, 5241779.0 ], [ 576439.0, 5241779.0 ], [ 576439.0, 5241778.0 ], [ 576440.0, 5241778.0 ], [ 576441.0, 5241776.0 ], [ 576446.0, 5241776.0 ], [ 576446.0, 5241775.0 ], [ 576452.0, 5241774.0 ], [ 576452.0, 5241773.0 ], [ 576454.0, 5241773.0 ], [ 576454.0, 5241772.0 ], [ 576456.0, 5241772.0 ], [ 576456.0, 5241773.0 ], [ 576458.0, 5241773.0 ], [ 576458.0, 5241772.0 ], [ 576461.0, 5241772.0 ], [ 576461.0, 5241771.0 ], [ 576463.0, 5241770.0 ], [ 576463.0, 5241768.0 ], [ 576464.0, 5241768.0 ], [ 576464.0, 5241767.0 ], [ 576465.0, 5241767.0 ], [ 576465.0, 5241766.0 ], [ 576466.0, 5241766.0 ], [ 576466.0, 5241765.0 ], [ 576467.0, 5241765.0 ], [ 576467.0, 5241764.0 ], [ 576469.0, 5241763.0 ], [ 576469.0, 5241762.0 ], [ 576468.0, 5241762.0 ], [ 576468.0, 5241761.0 ], [ 576467.0, 5241761.0 ], [ 576467.0, 5241760.0 ], [ 576465.0, 5241759.0 ], [ 576465.0, 5241755.0 ], [ 576464.0, 5241755.0 ], [ 576464.0, 5241754.0 ], [ 576465.0, 5241754.0 ], [ 576465.0, 5241751.0 ], [ 576466.0, 5241751.0 ], [ 576466.0, 5241750.0 ], [ 576467.0, 5241750.0 ], [ 576467.0, 5241748.0 ], [ 576468.0, 5241748.0 ], [ 576468.0, 5241745.0 ], [ 576470.0, 5241744.0 ], [ 576470.0, 5241741.0 ], [ 576468.0, 5241740.0 ], [ 576467.0, 5241736.0 ], [ 576466.0, 5241736.0 ], [ 576465.0, 5241734.0 ], [ 576463.0, 5241734.0 ], [ 576463.0, 5241733.0 ], [ 576462.0, 5241733.0 ], [ 576462.0, 5241732.0 ], [ 576461.0, 5241732.0 ], [ 576461.0, 5241731.0 ], [ 576460.0, 5241731.0 ], [ 576460.0, 5241730.0 ], [ 576459.0, 5241730.0 ], [ 576459.0, 5241729.0 ], [ 576457.0, 5241728.0 ], [ 576457.0, 5241724.0 ], [ 576456.0, 5241724.0 ], [ 576456.0, 5241722.0 ], [ 576455.0, 5241722.0 ], [ 576455.0, 5241719.0 ], [ 576454.0, 5241719.0 ], [ 576454.0, 5241717.0 ], [ 576455.0, 5241717.0 ], [ 576455.0, 5241716.0 ], [ 576456.0, 5241716.0 ], [ 576456.0, 5241715.0 ], [ 576458.0, 5241714.0 ], [ 576458.0, 5241713.0 ], [ 576456.0, 5241712.0 ], [ 576456.0, 5241711.0 ], [ 576457.0, 5241711.0 ], [ 576458.0, 5241709.0 ], [ 576457.0, 5241709.0 ], [ 576456.0, 5241707.0 ], [ 576453.0, 5241707.0 ], [ 576452.0, 5241705.0 ], [ 576450.0, 5241706.0 ], [ 576450.0, 5241705.0 ], [ 576449.0, 5241705.0 ], [ 576448.0, 5241703.0 ], [ 576446.0, 5241703.0 ], [ 576446.0, 5241696.0 ], [ 576445.0, 5241696.0 ], [ 576445.0, 5241685.0 ], [ 576444.0, 5241685.0 ], [ 576444.0, 5241684.0 ], [ 576445.0, 5241684.0 ], [ 576445.0, 5241680.0 ], [ 576446.0, 5241680.0 ], [ 576446.0, 5241679.0 ], [ 576445.0, 5241679.0 ], [ 576445.0, 5241677.0 ], [ 576446.0, 5241677.0 ], [ 576446.0, 5241674.0 ], [ 576447.0, 5241674.0 ], [ 576447.0, 5241673.0 ], [ 576449.0, 5241673.0 ], [ 576450.0, 5241671.0 ], [ 576453.0, 5241671.0 ], [ 576453.0, 5241670.0 ], [ 576454.0, 5241670.0 ], [ 576454.0, 5241669.0 ], [ 576456.0, 5241668.0 ], [ 576456.0, 5241666.0 ], [ 576457.0, 5241666.0 ], [ 576457.0, 5241664.0 ], [ 576456.0, 5241664.0 ], [ 576456.0, 5241663.0 ], [ 576454.0, 5241662.0 ], [ 576454.0, 5241660.0 ], [ 576452.0, 5241659.0 ], [ 576452.0, 5241657.0 ], [ 576451.0, 5241657.0 ], [ 576451.0, 5241655.0 ], [ 576450.0, 5241655.0 ], [ 576450.0, 5241653.0 ], [ 576449.0, 5241653.0 ], [ 576449.0, 5241650.0 ], [ 576448.0, 5241650.0 ], [ 576448.0, 5241645.0 ], [ 576450.0, 5241644.0 ], [ 576450.0, 5241642.0 ], [ 576452.0, 5241641.0 ], [ 576452.0, 5241639.0 ], [ 576453.0, 5241639.0 ], [ 576453.0, 5241638.0 ], [ 576455.0, 5241637.0 ], [ 576455.0, 5241635.0 ], [ 576457.0, 5241634.0 ], [ 576457.0, 5241632.0 ], [ 576458.0, 5241632.0 ], [ 576458.0, 5241631.0 ], [ 576460.0, 5241630.0 ], [ 576460.0, 5241628.0 ], [ 576461.0, 5241628.0 ], [ 576461.0, 5241627.0 ], [ 576463.0, 5241626.0 ], [ 576464.0, 5241622.0 ], [ 576465.0, 5241622.0 ], [ 576465.0, 5241621.0 ], [ 576466.0, 5241621.0 ], [ 576466.0, 5241620.0 ], [ 576468.0, 5241619.0 ], [ 576468.0, 5241617.0 ], [ 576467.0, 5241617.0 ], [ 576466.0, 5241615.0 ], [ 576462.0, 5241615.0 ], [ 576462.0, 5241616.0 ], [ 576458.0, 5241616.0 ], [ 576458.0, 5241615.0 ], [ 576456.0, 5241615.0 ], [ 576456.0, 5241614.0 ], [ 576455.0, 5241614.0 ], [ 576455.0, 5241613.0 ], [ 576454.0, 5241613.0 ], [ 576454.0, 5241612.0 ], [ 576452.0, 5241611.0 ], [ 576452.0, 5241608.0 ], [ 576451.0, 5241608.0 ], [ 576450.0, 5241606.0 ], [ 576448.0, 5241606.0 ], [ 576448.0, 5241605.0 ], [ 576447.0, 5241605.0 ], [ 576447.0, 5241603.0 ], [ 576445.0, 5241602.0 ], [ 576445.0, 5241599.0 ], [ 576444.0, 5241599.0 ], [ 576444.0, 5241595.0 ], [ 576443.0, 5241595.0 ], [ 576443.0, 5241592.0 ], [ 576441.0, 5241591.0 ], [ 576441.0, 5241587.0 ], [ 576440.0, 5241587.0 ], [ 576440.0, 5241583.0 ], [ 576439.0, 5241583.0 ], [ 576439.0, 5241575.0 ], [ 576440.0, 5241575.0 ], [ 576440.0, 5241571.0 ], [ 576439.0, 5241571.0 ], [ 576439.0, 5241566.0 ], [ 576440.0, 5241566.0 ], [ 576441.0, 5241564.0 ], [ 576440.0, 5241564.0 ], [ 576440.0, 5241562.0 ], [ 576438.0, 5241561.0 ], [ 576438.0, 5241554.0 ], [ 576437.0, 5241554.0 ], [ 576437.0, 5241534.0 ], [ 576438.0, 5241534.0 ], [ 576438.0, 5241530.0 ], [ 576439.0, 5241530.0 ], [ 576439.0, 5241523.0 ], [ 576440.0, 5241523.0 ], [ 576440.0, 5241518.0 ], [ 576441.0, 5241518.0 ], [ 576441.0, 5241515.0 ], [ 576443.0, 5241514.0 ], [ 576443.0, 5241512.0 ], [ 576442.0, 5241512.0 ], [ 576442.0, 5241511.0 ], [ 576443.0, 5241511.0 ], [ 576443.0, 5241510.0 ], [ 576444.0, 5241510.0 ], [ 576444.0, 5241509.0 ], [ 576445.0, 5241509.0 ], [ 576445.0, 5241508.0 ], [ 576446.0, 5241508.0 ], [ 576446.0, 5241507.0 ], [ 576447.0, 5241507.0 ], [ 576448.0, 5241505.0 ], [ 576450.0, 5241505.0 ], [ 576450.0, 5241504.0 ], [ 576451.0, 5241504.0 ], [ 576452.0, 5241502.0 ], [ 576454.0, 5241502.0 ], [ 576454.0, 5241501.0 ], [ 576455.0, 5241501.0 ], [ 576455.0, 5241500.0 ], [ 576456.0, 5241500.0 ], [ 576457.0, 5241498.0 ], [ 576459.0, 5241498.0 ], [ 576460.0, 5241496.0 ], [ 576463.0, 5241496.0 ], [ 576463.0, 5241495.0 ], [ 576464.0, 5241495.0 ], [ 576464.0, 5241494.0 ], [ 576465.0, 5241494.0 ], [ 576465.0, 5241493.0 ], [ 576466.0, 5241493.0 ], [ 576466.0, 5241492.0 ], [ 576467.0, 5241492.0 ], [ 576467.0, 5241491.0 ], [ 576468.0, 5241491.0 ], [ 576468.0, 5241490.0 ], [ 576470.0, 5241489.0 ], [ 576470.0, 5241484.0 ], [ 576469.0, 5241484.0 ], [ 576469.0, 5241482.0 ], [ 576468.0, 5241482.0 ], [ 576468.0, 5241481.0 ], [ 576467.0, 5241481.0 ], [ 576467.0, 5241480.0 ], [ 576466.0, 5241480.0 ], [ 576466.0, 5241479.0 ], [ 576465.0, 5241479.0 ], [ 576465.0, 5241478.0 ], [ 576464.0, 5241478.0 ], [ 576463.0, 5241476.0 ], [ 576461.0, 5241476.0 ], [ 576461.0, 5241475.0 ], [ 576453.0, 5241475.0 ], [ 576453.0, 5241474.0 ], [ 576450.0, 5241474.0 ], [ 576450.0, 5241473.0 ], [ 576442.0, 5241473.0 ], [ 576442.0, 5241472.0 ], [ 576430.0, 5241472.0 ], [ 576430.0, 5241473.0 ], [ 576427.0, 5241473.0 ], [ 576427.0, 5241474.0 ], [ 576425.0, 5241474.0 ], [ 576425.0, 5241475.0 ], [ 576424.0, 5241475.0 ], [ 576424.0, 5241476.0 ], [ 576423.0, 5241476.0 ], [ 576422.0, 5241478.0 ], [ 576420.0, 5241478.0 ], [ 576420.0, 5241477.0 ], [ 576419.0, 5241477.0 ], [ 576418.0, 5241475.0 ], [ 576415.0, 5241475.0 ], [ 576415.0, 5241474.0 ], [ 576409.0, 5241474.0 ], [ 576409.0, 5241475.0 ], [ 576405.0, 5241475.0 ], [ 576405.0, 5241474.0 ], [ 576404.0, 5241474.0 ], [ 576404.0, 5241472.0 ], [ 576403.0, 5241472.0 ], [ 576403.0, 5241470.0 ], [ 576404.0, 5241470.0 ], [ 576404.0, 5241467.0 ], [ 576403.0, 5241467.0 ], [ 576403.0, 5241466.0 ], [ 576401.0, 5241465.0 ], [ 576401.0, 5241463.0 ], [ 576400.0, 5241463.0 ], [ 576400.0, 5241459.0 ], [ 576399.0, 5241459.0 ], [ 576398.0, 5241451.0 ], [ 576397.0, 5241451.0 ], [ 576397.0, 5241449.0 ], [ 576396.0, 5241449.0 ], [ 576396.0, 5241446.0 ], [ 576394.0, 5241445.0 ], [ 576395.0, 5241443.0 ], [ 576393.0, 5241442.0 ], [ 576393.0, 5241439.0 ], [ 576391.0, 5241438.0 ], [ 576391.0, 5241435.0 ], [ 576392.0, 5241435.0 ], [ 576392.0, 5241434.0 ], [ 576394.0, 5241433.0 ], [ 576394.0, 5241431.0 ], [ 576393.0, 5241431.0 ], [ 576393.0, 5241430.0 ], [ 576398.0, 5241430.0 ], [ 576398.0, 5241431.0 ], [ 576400.0, 5241431.0 ], [ 576400.0, 5241430.0 ], [ 576406.0, 5241430.0 ], [ 576406.0, 5241429.0 ], [ 576407.0, 5241429.0 ], [ 576407.0, 5241428.0 ], [ 576408.0, 5241428.0 ], [ 576409.0, 5241426.0 ], [ 576407.0, 5241425.0 ], [ 576407.0, 5241422.0 ], [ 576406.0, 5241422.0 ], [ 576406.0, 5241419.0 ], [ 576405.0, 5241419.0 ], [ 576405.0, 5241415.0 ], [ 576403.0, 5241414.0 ], [ 576403.0, 5241412.0 ], [ 576401.0, 5241411.0 ], [ 576401.0, 5241409.0 ], [ 576400.0, 5241409.0 ], [ 576400.0, 5241408.0 ], [ 576399.0, 5241408.0 ], [ 576399.0, 5241407.0 ], [ 576398.0, 5241407.0 ], [ 576398.0, 5241406.0 ], [ 576397.0, 5241406.0 ], [ 576397.0, 5241405.0 ], [ 576396.0, 5241405.0 ], [ 576396.0, 5241404.0 ], [ 576395.0, 5241404.0 ], [ 576395.0, 5241403.0 ], [ 576394.0, 5241403.0 ], [ 576394.0, 5241402.0 ], [ 576393.0, 5241402.0 ], [ 576393.0, 5241401.0 ], [ 576392.0, 5241401.0 ], [ 576392.0, 5241400.0 ], [ 576391.0, 5241400.0 ], [ 576391.0, 5241399.0 ], [ 576390.0, 5241399.0 ], [ 576390.0, 5241398.0 ], [ 576388.0, 5241397.0 ], [ 576388.0, 5241395.0 ], [ 576387.0, 5241395.0 ], [ 576386.0, 5241393.0 ], [ 576384.0, 5241393.0 ], [ 576384.0, 5241391.0 ], [ 576383.0, 5241391.0 ], [ 576383.0, 5241390.0 ], [ 576382.0, 5241390.0 ], [ 576382.0, 5241389.0 ], [ 576381.0, 5241389.0 ], [ 576381.0, 5241388.0 ], [ 576380.0, 5241388.0 ], [ 576380.0, 5241387.0 ], [ 576379.0, 5241387.0 ], [ 576378.0, 5241385.0 ], [ 576376.0, 5241385.0 ], [ 576376.0, 5241384.0 ], [ 576372.0, 5241383.0 ], [ 576372.0, 5241382.0 ], [ 576371.0, 5241382.0 ], [ 576370.0, 5241380.0 ], [ 576357.0, 5241380.0 ], [ 576357.0, 5241381.0 ], [ 576356.0, 5241381.0 ], [ 576356.0, 5241386.0 ], [ 576355.0, 5241386.0 ], [ 576355.0, 5241391.0 ], [ 576354.0, 5241391.0 ], [ 576354.0, 5241396.0 ], [ 576353.0, 5241396.0 ], [ 576353.0, 5241400.0 ], [ 576352.0, 5241400.0 ], [ 576352.0, 5241401.0 ], [ 576351.0, 5241401.0 ], [ 576351.0, 5241402.0 ], [ 576350.0, 5241402.0 ], [ 576350.0, 5241403.0 ], [ 576349.0, 5241403.0 ], [ 576348.0, 5241405.0 ], [ 576345.0, 5241405.0 ], [ 576345.0, 5241406.0 ], [ 576344.0, 5241406.0 ], [ 576344.0, 5241407.0 ], [ 576342.0, 5241407.0 ], [ 576342.0, 5241408.0 ], [ 576339.0, 5241408.0 ], [ 576339.0, 5241409.0 ], [ 576336.0, 5241409.0 ], [ 576336.0, 5241410.0 ], [ 576330.0, 5241411.0 ], [ 576330.0, 5241412.0 ], [ 576328.0, 5241412.0 ], [ 576328.0, 5241413.0 ], [ 576325.0, 5241413.0 ], [ 576325.0, 5241412.0 ], [ 576324.0, 5241412.0 ], [ 576324.0, 5241413.0 ], [ 576320.0, 5241413.0 ], [ 576319.0, 5241415.0 ], [ 576316.0, 5241415.0 ], [ 576316.0, 5241416.0 ], [ 576313.0, 5241416.0 ], [ 576313.0, 5241417.0 ], [ 576312.0, 5241417.0 ], [ 576312.0, 5241416.0 ], [ 576310.0, 5241416.0 ], [ 576310.0, 5241415.0 ], [ 576309.0, 5241415.0 ], [ 576309.0, 5241413.0 ], [ 576308.0, 5241413.0 ], [ 576307.0, 5241411.0 ], [ 576305.0, 5241411.0 ], [ 576305.0, 5241410.0 ], [ 576304.0, 5241410.0 ], [ 576304.0, 5241407.0 ], [ 576303.0, 5241407.0 ], [ 576303.0, 5241406.0 ], [ 576302.0, 5241406.0 ], [ 576301.0, 5241404.0 ], [ 576298.0, 5241404.0 ], [ 576298.0, 5241405.0 ], [ 576296.0, 5241406.0 ], [ 576296.0, 5241411.0 ], [ 576298.0, 5241412.0 ], [ 576299.0, 5241418.0 ], [ 576297.0, 5241418.0 ], [ 576297.0, 5241419.0 ], [ 576296.0, 5241419.0 ], [ 576295.0, 5241417.0 ], [ 576292.0, 5241417.0 ], [ 576292.0, 5241415.0 ], [ 576291.0, 5241415.0 ], [ 576291.0, 5241414.0 ], [ 576290.0, 5241414.0 ], [ 576290.0, 5241413.0 ], [ 576288.0, 5241412.0 ], [ 576288.0, 5241410.0 ], [ 576287.0, 5241410.0 ], [ 576286.0, 5241408.0 ], [ 576284.0, 5241408.0 ], [ 576284.0, 5241409.0 ], [ 576282.0, 5241410.0 ], [ 576283.0, 5241418.0 ], [ 576284.0, 5241418.0 ], [ 576284.0, 5241420.0 ], [ 576285.0, 5241420.0 ], [ 576285.0, 5241421.0 ], [ 576286.0, 5241421.0 ], [ 576286.0, 5241422.0 ], [ 576287.0, 5241422.0 ], [ 576288.0, 5241424.0 ], [ 576290.0, 5241424.0 ], [ 576291.0, 5241430.0 ], [ 576292.0, 5241430.0 ], [ 576292.0, 5241431.0 ], [ 576293.0, 5241431.0 ], [ 576293.0, 5241432.0 ], [ 576295.0, 5241433.0 ], [ 576295.0, 5241436.0 ], [ 576296.0, 5241436.0 ], [ 576296.0, 5241439.0 ], [ 576297.0, 5241439.0 ], [ 576297.0, 5241441.0 ], [ 576298.0, 5241441.0 ], [ 576298.0, 5241442.0 ], [ 576299.0, 5241442.0 ], [ 576300.0, 5241444.0 ], [ 576305.0, 5241444.0 ], [ 576305.0, 5241448.0 ], [ 576304.0, 5241448.0 ], [ 576304.0, 5241449.0 ], [ 576303.0, 5241449.0 ], [ 576303.0, 5241450.0 ], [ 576301.0, 5241451.0 ], [ 576301.0, 5241454.0 ], [ 576300.0, 5241454.0 ], [ 576300.0, 5241456.0 ], [ 576299.0, 5241456.0 ], [ 576299.0, 5241457.0 ], [ 576297.0, 5241458.0 ], [ 576297.0, 5241461.0 ], [ 576296.0, 5241461.0 ], [ 576296.0, 5241462.0 ], [ 576295.0, 5241462.0 ], [ 576295.0, 5241463.0 ], [ 576294.0, 5241463.0 ], [ 576294.0, 5241464.0 ], [ 576293.0, 5241464.0 ], [ 576292.0, 5241466.0 ], [ 576288.0, 5241466.0 ], [ 576288.0, 5241465.0 ], [ 576286.0, 5241465.0 ], [ 576286.0, 5241464.0 ], [ 576284.0, 5241464.0 ], [ 576284.0, 5241463.0 ], [ 576283.0, 5241463.0 ], [ 576283.0, 5241461.0 ], [ 576284.0, 5241461.0 ], [ 576284.0, 5241457.0 ], [ 576285.0, 5241457.0 ], [ 576285.0, 5241453.0 ], [ 576284.0, 5241453.0 ], [ 576284.0, 5241450.0 ], [ 576285.0, 5241450.0 ], [ 576285.0, 5241449.0 ], [ 576284.0, 5241449.0 ], [ 576284.0, 5241447.0 ], [ 576283.0, 5241447.0 ], [ 576283.0, 5241446.0 ], [ 576282.0, 5241446.0 ], [ 576282.0, 5241445.0 ], [ 576281.0, 5241445.0 ], [ 576281.0, 5241444.0 ], [ 576280.0, 5241444.0 ], [ 576279.0, 5241442.0 ], [ 576277.0, 5241442.0 ], [ 576277.0, 5241441.0 ], [ 576276.0, 5241441.0 ], [ 576276.0, 5241439.0 ], [ 576275.0, 5241439.0 ], [ 576275.0, 5241437.0 ], [ 576274.0, 5241437.0 ], [ 576274.0, 5241434.0 ], [ 576273.0, 5241434.0 ], [ 576273.0, 5241431.0 ], [ 576272.0, 5241431.0 ], [ 576272.0, 5241428.0 ], [ 576270.0, 5241427.0 ], [ 576269.0, 5241423.0 ], [ 576268.0, 5241423.0 ], [ 576268.0, 5241422.0 ], [ 576267.0, 5241422.0 ], [ 576267.0, 5241421.0 ], [ 576265.0, 5241420.0 ], [ 576265.0, 5241418.0 ], [ 576263.0, 5241417.0 ], [ 576263.0, 5241415.0 ], [ 576262.0, 5241415.0 ], [ 576262.0, 5241414.0 ], [ 576261.0, 5241414.0 ], [ 576261.0, 5241413.0 ], [ 576260.0, 5241413.0 ], [ 576259.0, 5241411.0 ], [ 576257.0, 5241411.0 ], [ 576257.0, 5241407.0 ], [ 576256.0, 5241407.0 ], [ 576256.0, 5241406.0 ], [ 576254.0, 5241405.0 ], [ 576254.0, 5241401.0 ], [ 576253.0, 5241401.0 ], [ 576253.0, 5241399.0 ], [ 576252.0, 5241399.0 ], [ 576251.0, 5241397.0 ], [ 576249.0, 5241397.0 ], [ 576249.0, 5241396.0 ], [ 576245.0, 5241396.0 ], [ 576245.0, 5241395.0 ], [ 576243.0, 5241395.0 ], [ 576243.0, 5241394.0 ], [ 576239.0, 5241394.0 ], [ 576239.0, 5241393.0 ], [ 576237.0, 5241392.0 ], [ 576237.0, 5241390.0 ], [ 576236.0, 5241390.0 ], [ 576235.0, 5241388.0 ], [ 576232.0, 5241388.0 ], [ 576232.0, 5241389.0 ], [ 576230.0, 5241390.0 ], [ 576230.0, 5241392.0 ], [ 576231.0, 5241392.0 ], [ 576231.0, 5241393.0 ], [ 576233.0, 5241394.0 ], [ 576233.0, 5241397.0 ], [ 576234.0, 5241397.0 ], [ 576234.0, 5241399.0 ], [ 576235.0, 5241399.0 ], [ 576235.0, 5241401.0 ], [ 576234.0, 5241401.0 ], [ 576234.0, 5241402.0 ], [ 576232.0, 5241403.0 ], [ 576232.0, 5241405.0 ], [ 576233.0, 5241405.0 ], [ 576234.0, 5241409.0 ], [ 576235.0, 5241409.0 ], [ 576236.0, 5241411.0 ], [ 576240.0, 5241411.0 ], [ 576240.0, 5241412.0 ], [ 576242.0, 5241412.0 ], [ 576242.0, 5241415.0 ], [ 576243.0, 5241415.0 ], [ 576243.0, 5241416.0 ], [ 576244.0, 5241416.0 ], [ 576245.0, 5241418.0 ], [ 576247.0, 5241418.0 ], [ 576247.0, 5241419.0 ], [ 576246.0, 5241419.0 ], [ 576246.0, 5241420.0 ], [ 576244.0, 5241421.0 ], [ 576244.0, 5241424.0 ], [ 576245.0, 5241424.0 ], [ 576245.0, 5241426.0 ], [ 576246.0, 5241426.0 ], [ 576246.0, 5241427.0 ], [ 576247.0, 5241427.0 ], [ 576247.0, 5241428.0 ], [ 576248.0, 5241428.0 ], [ 576248.0, 5241429.0 ], [ 576250.0, 5241430.0 ], [ 576250.0, 5241433.0 ], [ 576251.0, 5241433.0 ], [ 576251.0, 5241435.0 ], [ 576252.0, 5241435.0 ], [ 576252.0, 5241441.0 ], [ 576251.0, 5241441.0 ], [ 576251.0, 5241443.0 ], [ 576250.0, 5241443.0 ], [ 576250.0, 5241444.0 ], [ 576246.0, 5241444.0 ], [ 576246.0, 5241443.0 ], [ 576245.0, 5241443.0 ], [ 576245.0, 5241444.0 ], [ 576242.0, 5241444.0 ], [ 576242.0, 5241443.0 ], [ 576240.0, 5241443.0 ], [ 576240.0, 5241442.0 ], [ 576239.0, 5241442.0 ], [ 576238.0, 5241440.0 ], [ 576236.0, 5241440.0 ], [ 576236.0, 5241439.0 ], [ 576235.0, 5241439.0 ], [ 576234.0, 5241437.0 ], [ 576231.0, 5241437.0 ], [ 576231.0, 5241438.0 ], [ 576229.0, 5241439.0 ], [ 576229.0, 5241441.0 ], [ 576230.0, 5241441.0 ], [ 576230.0, 5241442.0 ], [ 576231.0, 5241442.0 ], [ 576231.0, 5241443.0 ], [ 576232.0, 5241443.0 ], [ 576232.0, 5241444.0 ], [ 576233.0, 5241444.0 ], [ 576233.0, 5241445.0 ], [ 576234.0, 5241445.0 ], [ 576234.0, 5241446.0 ], [ 576235.0, 5241446.0 ], [ 576236.0, 5241448.0 ], [ 576238.0, 5241448.0 ], [ 576238.0, 5241449.0 ], [ 576239.0, 5241449.0 ], [ 576239.0, 5241450.0 ], [ 576240.0, 5241450.0 ], [ 576241.0, 5241452.0 ], [ 576243.0, 5241452.0 ], [ 576243.0, 5241453.0 ], [ 576244.0, 5241453.0 ], [ 576245.0, 5241455.0 ], [ 576247.0, 5241455.0 ], [ 576247.0, 5241456.0 ], [ 576248.0, 5241456.0 ], [ 576249.0, 5241458.0 ], [ 576251.0, 5241458.0 ], [ 576251.0, 5241459.0 ], [ 576252.0, 5241459.0 ], [ 576252.0, 5241460.0 ], [ 576253.0, 5241460.0 ], [ 576253.0, 5241461.0 ], [ 576254.0, 5241461.0 ], [ 576255.0, 5241463.0 ], [ 576259.0, 5241464.0 ], [ 576259.0, 5241465.0 ], [ 576260.0, 5241465.0 ], [ 576260.0, 5241466.0 ], [ 576261.0, 5241466.0 ], [ 576262.0, 5241468.0 ], [ 576264.0, 5241468.0 ], [ 576264.0, 5241469.0 ], [ 576265.0, 5241469.0 ], [ 576266.0, 5241471.0 ], [ 576268.0, 5241471.0 ], [ 576269.0, 5241473.0 ], [ 576271.0, 5241473.0 ], [ 576271.0, 5241474.0 ], [ 576273.0, 5241474.0 ], [ 576273.0, 5241475.0 ], [ 576275.0, 5241475.0 ], [ 576275.0, 5241476.0 ], [ 576279.0, 5241476.0 ], [ 576279.0, 5241477.0 ], [ 576280.0, 5241477.0 ], [ 576281.0, 5241479.0 ], [ 576285.0, 5241477.0 ], [ 576285.0, 5241478.0 ], [ 576287.0, 5241479.0 ], [ 576287.0, 5241481.0 ], [ 576288.0, 5241481.0 ], [ 576289.0, 5241483.0 ], [ 576291.0, 5241483.0 ], [ 576291.0, 5241484.0 ], [ 576296.0, 5241484.0 ], [ 576296.0, 5241485.0 ], [ 576298.0, 5241484.0 ], [ 576298.0, 5241485.0 ], [ 576300.0, 5241485.0 ], [ 576301.0, 5241487.0 ], [ 576300.0, 5241487.0 ], [ 576300.0, 5241488.0 ], [ 576299.0, 5241488.0 ], [ 576299.0, 5241489.0 ], [ 576298.0, 5241489.0 ], [ 576298.0, 5241490.0 ], [ 576297.0, 5241490.0 ], [ 576297.0, 5241491.0 ], [ 576295.0, 5241492.0 ], [ 576295.0, 5241494.0 ], [ 576296.0, 5241494.0 ], [ 576296.0, 5241495.0 ], [ 576297.0, 5241495.0 ], [ 576298.0, 5241497.0 ], [ 576303.0, 5241497.0 ], [ 576303.0, 5241496.0 ], [ 576306.0, 5241496.0 ], [ 576306.0, 5241497.0 ], [ 576309.0, 5241497.0 ], [ 576310.0, 5241499.0 ], [ 576312.0, 5241499.0 ], [ 576312.0, 5241500.0 ], [ 576314.0, 5241500.0 ], [ 576314.0, 5241501.0 ], [ 576310.0, 5241501.0 ], [ 576310.0, 5241500.0 ], [ 576307.0, 5241500.0 ], [ 576307.0, 5241501.0 ], [ 576306.0, 5241501.0 ], [ 576306.0, 5241502.0 ], [ 576304.0, 5241502.0 ], [ 576303.0, 5241504.0 ], [ 576299.0, 5241504.0 ], [ 576299.0, 5241503.0 ], [ 576293.0, 5241503.0 ], [ 576293.0, 5241502.0 ], [ 576289.0, 5241502.0 ], [ 576289.0, 5241503.0 ], [ 576288.0, 5241503.0 ], [ 576287.0, 5241505.0 ], [ 576281.0, 5241505.0 ], [ 576281.0, 5241504.0 ], [ 576280.0, 5241504.0 ], [ 576280.0, 5241503.0 ], [ 576278.0, 5241503.0 ], [ 576278.0, 5241502.0 ], [ 576277.0, 5241502.0 ], [ 576277.0, 5241501.0 ], [ 576276.0, 5241501.0 ], [ 576276.0, 5241500.0 ], [ 576275.0, 5241500.0 ], [ 576275.0, 5241499.0 ], [ 576274.0, 5241499.0 ], [ 576273.0, 5241497.0 ], [ 576267.0, 5241497.0 ], [ 576266.0, 5241495.0 ], [ 576261.0, 5241495.0 ], [ 576261.0, 5241494.0 ], [ 576253.0, 5241493.0 ], [ 576253.0, 5241492.0 ], [ 576250.0, 5241492.0 ], [ 576249.0, 5241490.0 ], [ 576243.0, 5241490.0 ], [ 576243.0, 5241489.0 ], [ 576239.0, 5241489.0 ], [ 576239.0, 5241490.0 ], [ 576237.0, 5241490.0 ], [ 576237.0, 5241489.0 ], [ 576235.0, 5241489.0 ], [ 576235.0, 5241488.0 ], [ 576226.0, 5241488.0 ], [ 576226.0, 5241487.0 ], [ 576216.0, 5241487.0 ], [ 576216.0, 5241486.0 ], [ 576212.0, 5241486.0 ], [ 576212.0, 5241485.0 ], [ 576209.0, 5241485.0 ], [ 576209.0, 5241484.0 ], [ 576208.0, 5241484.0 ], [ 576208.0, 5241483.0 ], [ 576206.0, 5241483.0 ], [ 576205.0, 5241481.0 ], [ 576202.0, 5241481.0 ], [ 576202.0, 5241480.0 ], [ 576201.0, 5241480.0 ], [ 576200.0, 5241478.0 ], [ 576198.0, 5241478.0 ], [ 576198.0, 5241477.0 ], [ 576196.0, 5241477.0 ], [ 576195.0, 5241475.0 ], [ 576193.0, 5241475.0 ], [ 576193.0, 5241474.0 ], [ 576192.0, 5241474.0 ], [ 576192.0, 5241473.0 ], [ 576191.0, 5241473.0 ], [ 576191.0, 5241472.0 ], [ 576190.0, 5241472.0 ], [ 576190.0, 5241471.0 ], [ 576189.0, 5241471.0 ], [ 576188.0, 5241469.0 ], [ 576186.0, 5241469.0 ], [ 576186.0, 5241468.0 ], [ 576185.0, 5241468.0 ], [ 576185.0, 5241467.0 ], [ 576184.0, 5241467.0 ], [ 576184.0, 5241466.0 ], [ 576183.0, 5241466.0 ], [ 576183.0, 5241465.0 ], [ 576182.0, 5241465.0 ], [ 576182.0, 5241464.0 ], [ 576181.0, 5241464.0 ], [ 576181.0, 5241463.0 ], [ 576180.0, 5241463.0 ], [ 576180.0, 5241462.0 ], [ 576179.0, 5241462.0 ], [ 576179.0, 5241461.0 ], [ 576178.0, 5241461.0 ], [ 576178.0, 5241460.0 ], [ 576177.0, 5241460.0 ], [ 576177.0, 5241459.0 ], [ 576175.0, 5241458.0 ], [ 576175.0, 5241455.0 ], [ 576174.0, 5241455.0 ], [ 576174.0, 5241453.0 ], [ 576173.0, 5241453.0 ], [ 576173.0, 5241451.0 ], [ 576172.0, 5241451.0 ], [ 576172.0, 5241449.0 ], [ 576171.0, 5241449.0 ], [ 576171.0, 5241447.0 ], [ 576170.0, 5241447.0 ], [ 576170.0, 5241438.0 ], [ 576171.0, 5241438.0 ], [ 576171.0, 5241437.0 ], [ 576170.0, 5241437.0 ], [ 576170.0, 5241433.0 ], [ 576171.0, 5241433.0 ], [ 576171.0, 5241432.0 ], [ 576170.0, 5241432.0 ], [ 576170.0, 5241430.0 ], [ 576169.0, 5241430.0 ], [ 576169.0, 5241429.0 ], [ 576168.0, 5241429.0 ], [ 576168.0, 5241428.0 ], [ 576167.0, 5241428.0 ], [ 576166.0, 5241426.0 ], [ 576162.0, 5241425.0 ], [ 576162.0, 5241424.0 ], [ 576161.0, 5241424.0 ], [ 576161.0, 5241423.0 ], [ 576160.0, 5241423.0 ], [ 576159.0, 5241421.0 ], [ 576157.0, 5241421.0 ], [ 576157.0, 5241420.0 ], [ 576156.0, 5241420.0 ], [ 576156.0, 5241418.0 ], [ 576155.0, 5241418.0 ], [ 576155.0, 5241417.0 ], [ 576154.0, 5241417.0 ], [ 576153.0, 5241415.0 ], [ 576150.0, 5241415.0 ], [ 576150.0, 5241414.0 ], [ 576148.0, 5241413.0 ], [ 576148.0, 5241407.0 ], [ 576147.0, 5241407.0 ], [ 576147.0, 5241404.0 ], [ 576146.0, 5241404.0 ], [ 576146.0, 5241399.0 ], [ 576145.0, 5241399.0 ], [ 576145.0, 5241396.0 ], [ 576144.0, 5241396.0 ], [ 576143.0, 5241394.0 ], [ 576141.0, 5241394.0 ], [ 576141.0, 5241395.0 ], [ 576140.0, 5241395.0 ], [ 576140.0, 5241396.0 ], [ 576138.0, 5241397.0 ], [ 576138.0, 5241400.0 ], [ 576137.0, 5241400.0 ], [ 576137.0, 5241402.0 ], [ 576138.0, 5241402.0 ], [ 576138.0, 5241409.0 ], [ 576139.0, 5241409.0 ], [ 576139.0, 5241413.0 ], [ 576138.0, 5241413.0 ], [ 576138.0, 5241415.0 ], [ 576137.0, 5241415.0 ], [ 576137.0, 5241416.0 ], [ 576134.0, 5241416.0 ], [ 576134.0, 5241417.0 ], [ 576132.0, 5241418.0 ], [ 576133.0, 5241422.0 ], [ 576131.0, 5241422.0 ], [ 576131.0, 5241423.0 ], [ 576129.0, 5241423.0 ], [ 576129.0, 5241424.0 ], [ 576127.0, 5241424.0 ], [ 576127.0, 5241425.0 ], [ 576125.0, 5241425.0 ], [ 576125.0, 5241426.0 ], [ 576117.0, 5241427.0 ], [ 576117.0, 5241428.0 ], [ 576115.0, 5241428.0 ], [ 576115.0, 5241429.0 ], [ 576113.0, 5241429.0 ], [ 576113.0, 5241428.0 ], [ 576112.0, 5241428.0 ], [ 576111.0, 5241426.0 ], [ 576110.0, 5241426.0 ], [ 576110.0, 5241427.0 ], [ 576108.0, 5241427.0 ], [ 576108.0, 5241425.0 ], [ 576109.0, 5241425.0 ], [ 576109.0, 5241422.0 ], [ 576108.0, 5241422.0 ], [ 576107.0, 5241420.0 ], [ 576106.0, 5241420.0 ], [ 576106.0, 5241421.0 ], [ 576103.0, 5241421.0 ], [ 576103.0, 5241416.0 ], [ 576102.0, 5241416.0 ], [ 576101.0, 5241414.0 ], [ 576097.0, 5241414.0 ], [ 576097.0, 5241415.0 ], [ 576095.0, 5241416.0 ], [ 576095.0, 5241418.0 ], [ 576093.0, 5241418.0 ], [ 576093.0, 5241419.0 ], [ 576089.0, 5241419.0 ], [ 576089.0, 5241420.0 ], [ 576088.0, 5241420.0 ], [ 576087.0, 5241422.0 ], [ 576082.0, 5241422.0 ], [ 576082.0, 5241423.0 ], [ 576079.0, 5241423.0 ], [ 576079.0, 5241424.0 ], [ 576078.0, 5241424.0 ], [ 576077.0, 5241422.0 ], [ 576068.0, 5241422.0 ], [ 576068.0, 5241423.0 ], [ 576064.0, 5241423.0 ], [ 576064.0, 5241424.0 ], [ 576060.0, 5241425.0 ], [ 576060.0, 5241426.0 ], [ 576058.0, 5241427.0 ], [ 576058.0, 5241429.0 ], [ 576057.0, 5241429.0 ], [ 576057.0, 5241430.0 ], [ 576052.0, 5241430.0 ], [ 576051.0, 5241432.0 ], [ 576048.0, 5241432.0 ], [ 576047.0, 5241434.0 ], [ 576044.0, 5241434.0 ], [ 576044.0, 5241435.0 ], [ 576042.0, 5241435.0 ], [ 576042.0, 5241436.0 ], [ 576041.0, 5241436.0 ], [ 576040.0, 5241438.0 ], [ 576039.0, 5241438.0 ], [ 576039.0, 5241437.0 ], [ 576032.0, 5241437.0 ], [ 576032.0, 5241436.0 ], [ 576029.0, 5241436.0 ], [ 576029.0, 5241435.0 ], [ 576027.0, 5241434.0 ], [ 576027.0, 5241435.0 ], [ 576025.0, 5241435.0 ], [ 576024.0, 5241437.0 ], [ 576022.0, 5241437.0 ], [ 576021.0, 5241439.0 ], [ 576017.0, 5241439.0 ], [ 576017.0, 5241440.0 ], [ 576016.0, 5241440.0 ], [ 576016.0, 5241441.0 ], [ 576015.0, 5241441.0 ], [ 576015.0, 5241442.0 ], [ 576014.0, 5241442.0 ], [ 576014.0, 5241443.0 ], [ 576012.0, 5241444.0 ], [ 576012.0, 5241451.0 ], [ 576011.0, 5241451.0 ], [ 576011.0, 5241452.0 ], [ 576010.0, 5241452.0 ], [ 576009.0, 5241454.0 ], [ 576002.0, 5241454.0 ], [ 576002.0, 5241455.0 ], [ 576001.0, 5241455.0 ], [ 576001.0, 5241454.0 ], [ 575998.0, 5241454.0 ], [ 575997.0, 5241456.0 ], [ 575995.0, 5241456.0 ], [ 575995.0, 5241455.0 ], [ 575994.0, 5241455.0 ], [ 575993.0, 5241457.0 ], [ 575992.0, 5241457.0 ], [ 575992.0, 5241456.0 ], [ 575980.0, 5241456.0 ], [ 575980.0, 5241457.0 ], [ 575979.0, 5241457.0 ], [ 575979.0, 5241458.0 ], [ 575978.0, 5241458.0 ], [ 575978.0, 5241459.0 ], [ 575976.0, 5241460.0 ], [ 575976.0, 5241467.0 ], [ 575975.0, 5241467.0 ], [ 575975.0, 5241468.0 ], [ 575974.0, 5241468.0 ], [ 575974.0, 5241469.0 ], [ 575973.0, 5241469.0 ], [ 575973.0, 5241470.0 ], [ 575971.0, 5241471.0 ], [ 575971.0, 5241472.0 ], [ 575972.0, 5241472.0 ], [ 575973.0, 5241474.0 ], [ 575975.0, 5241474.0 ], [ 575975.0, 5241475.0 ], [ 575966.0, 5241475.0 ], [ 575966.0, 5241474.0 ], [ 575956.0, 5241474.0 ], [ 575956.0, 5241473.0 ], [ 575945.0, 5241473.0 ], [ 575945.0, 5241474.0 ], [ 575943.0, 5241474.0 ], [ 575942.0, 5241476.0 ], [ 575939.0, 5241476.0 ], [ 575939.0, 5241477.0 ], [ 575937.0, 5241478.0 ], [ 575937.0, 5241480.0 ], [ 575935.0, 5241481.0 ], [ 575935.0, 5241483.0 ], [ 575934.0, 5241483.0 ], [ 575934.0, 5241484.0 ], [ 575933.0, 5241484.0 ], [ 575933.0, 5241485.0 ], [ 575931.0, 5241486.0 ], [ 575931.0, 5241493.0 ], [ 575929.0, 5241494.0 ], [ 575929.0, 5241496.0 ], [ 575928.0, 5241496.0 ], [ 575928.0, 5241499.0 ], [ 575927.0, 5241499.0 ], [ 575927.0, 5241504.0 ], [ 575925.0, 5241505.0 ], [ 575925.0, 5241507.0 ], [ 575926.0, 5241507.0 ], [ 575926.0, 5241508.0 ], [ 575927.0, 5241508.0 ], [ 575927.0, 5241509.0 ], [ 575928.0, 5241509.0 ], [ 575928.0, 5241510.0 ], [ 575929.0, 5241510.0 ], [ 575929.0, 5241511.0 ], [ 575931.0, 5241512.0 ], [ 575931.0, 5241513.0 ], [ 575930.0, 5241513.0 ] ], [ [ 575931.0, 5241511.0 ], [ 575932.0, 5241511.0 ], [ 575932.0, 5241512.0 ], [ 575931.0, 5241512.0 ], [ 575931.0, 5241511.0 ] ], [ [ 575932.0, 5241510.0 ], [ 575933.0, 5241510.0 ], [ 575933.0, 5241511.0 ], [ 575932.0, 5241511.0 ], [ 575932.0, 5241510.0 ] ], [ [ 575933.0, 5241508.0 ], [ 575935.0, 5241508.0 ], [ 575935.0, 5241509.0 ], [ 575933.0, 5241510.0 ], [ 575933.0, 5241508.0 ] ], [ [ 576337.0, 5241798.0 ], [ 576337.0, 5241799.0 ], [ 576336.0, 5241799.0 ], [ 576336.0, 5241798.0 ], [ 576337.0, 5241798.0 ] ], [ [ 576249.0, 5241417.0 ], [ 576249.0, 5241418.0 ], [ 576248.0, 5241418.0 ], [ 576248.0, 5241417.0 ], [ 576249.0, 5241417.0 ] ] ] } },
{ "type": "Feature", "properties": { "name": "NE ridge fill", "kind": "pile", "source_survey": "osmre2023", "relief_m": 1.0, "pad_m": 2.0, "edge_contact": 0.039 }, "geometry": { "type": "Polygon", "coordinates": [ [ [ 576756.0, 5242227.0 ], [ 576756.0, 5242226.0 ], [ 576758.0, 5242226.0 ], [ 576758.0, 5242227.0 ], [ 576764.0, 5242227.0 ], [ 576764.0, 5242226.0 ], [ 576770.0, 5242226.0 ], [ 576770.0, 5242225.0 ], [ 576779.0, 5242225.0 ], [ 576779.0, 5242226.0 ], [ 576781.0, 5242226.0 ], [ 576781.0, 5242225.0 ], [ 576787.0, 5242225.0 ], [ 576787.0, 5242226.0 ], [ 576788.0, 5242226.0 ], [ 576788.0, 5242225.0 ], [ 576791.0, 5242225.0 ], [ 576791.0, 5242226.0 ], [ 576795.0, 5242226.0 ], [ 576795.0, 5242225.0 ], [ 576809.0, 5242225.0 ], [ 576809.0, 5242226.0 ], [ 576810.0, 5242226.0 ], [ 576810.0, 5242225.0 ], [ 576811.0, 5242225.0 ], [ 576811.0, 5242226.0 ], [ 576816.0, 5242226.0 ], [ 576816.0, 5242227.0 ], [ 576818.0, 5242227.0 ], [ 576818.0, 5242226.0 ], [ 576821.0, 5242226.0 ], [ 576821.0, 5242227.0 ], [ 576823.0, 5242227.0 ], [ 576823.0, 5242226.0 ], [ 576828.0, 5242226.0 ], [ 576828.0, 5242225.0 ], [ 576834.0, 5242225.0 ], [ 576834.0, 5242224.0 ], [ 576835.0, 5242224.0 ], [ 576835.0, 5242225.0 ], [ 576837.0, 5242225.0 ], [ 576837.0, 5242224.0 ], [ 576838.0, 5242224.0 ], [ 576838.0, 5242225.0 ], [ 576839.0, 5242225.0 ], [ 576839.0, 5242224.0 ], [ 576847.0, 5242224.0 ], [ 576847.0, 5242223.0 ], [ 576850.0, 5242223.0 ], [ 576850.0, 5242222.0 ], [ 576856.0, 5242222.0 ], [ 576856.0, 5242221.0 ], [ 576859.0, 5242221.0 ], [ 576859.0, 5242222.0 ], [ 576863.0, 5242222.0 ], [ 576863.0, 5242221.0 ], [ 576865.0, 5242221.0 ], [ 576865.0, 5242220.0 ], [ 576868.0, 5242220.0 ], [ 576868.0, 5242221.0 ], [ 576869.0, 5242221.0 ], [ 576869.0, 5242220.0 ], [ 576871.0, 5242219.0 ], [ 576871.0, 5242216.0 ], [ 576872.0, 5242216.0 ], [ 576872.0, 5242214.0 ], [ 576873.0, 5242214.0 ], [ 576874.0, 5242212.0 ], [ 576876.0, 5242212.0 ], [ 576876.0, 5242211.0 ], [ 576877.0, 5242211.0 ], [ 576878.0, 5242209.0 ], [ 576882.0, 5242208.0 ], [ 576883.0, 5242206.0 ], [ 576885.0, 5242206.0 ], [ 576885.0, 5242205.0 ], [ 576887.0, 5242205.0 ], [ 576887.0, 5242204.0 ], [ 576891.0, 5242205.0 ], [ 576891.0, 5242204.0 ], [ 576893.0, 5242203.0 ], [ 576893.0, 5242201.0 ], [ 576895.0, 5242201.0 ], [ 576896.0, 5242199.0 ], [ 576899.0, 5242199.0 ], [ 576899.0, 5242198.0 ], [ 576900.0, 5242198.0 ], [ 576900.0, 5242197.0 ], [ 576902.0, 5242196.0 ], [ 576902.0, 5242192.0 ], [ 576903.0, 5242192.0 ], [ 576903.0, 5242190.0 ], [ 576904.0, 5242190.0 ], [ 576904.0, 5242189.0 ], [ 576905.0, 5242189.0 ], [ 576905.0, 5242188.0 ], [ 576906.0, 5242188.0 ], [ 576906.0, 5242187.0 ], [ 576907.0, 5242187.0 ], [ 576907.0, 5242186.0 ], [ 576908.0, 5242186.0 ], [ 576908.0, 5242185.0 ], [ 576910.0, 5242184.0 ], [ 576910.0, 5242182.0 ], [ 576911.0, 5242182.0 ], [ 576911.0, 5242181.0 ], [ 576913.0, 5242180.0 ], [ 576913.0, 5242178.0 ], [ 576914.0, 5242178.0 ], [ 576914.0, 5242174.0 ], [ 576915.0, 5242174.0 ], [ 576915.0, 5242170.0 ], [ 576916.0, 5242170.0 ], [ 576916.0, 5242164.0 ], [ 576917.0, 5242164.0 ], [ 576917.0, 5242163.0 ], [ 576916.0, 5242163.0 ], [ 576916.0, 5242162.0 ], [ 576917.0, 5242162.0 ], [ 576917.0, 5242153.0 ], [ 576918.0, 5242153.0 ], [ 576918.0, 5242135.0 ], [ 576917.0, 5242135.0 ], [ 576916.0, 5242125.0 ], [ 576915.0, 5242125.0 ], [ 576915.0, 5242121.0 ], [ 576914.0, 5242121.0 ], [ 576914.0, 5242118.0 ], [ 576913.0, 5242118.0 ], [ 576913.0, 5242115.0 ], [ 576912.0, 5242115.0 ], [ 576912.0, 5242112.0 ], [ 576911.0, 5242112.0 ], [ 576911.0, 5242108.0 ], [ 576910.0, 5242108.0 ], [ 576910.0, 5242105.0 ], [ 576909.0, 5242105.0 ], [ 576909.0, 5242102.0 ], [ 576908.0, 5242102.0 ], [ 576908.0, 5242099.0 ], [ 576907.0, 5242099.0 ], [ 576906.0, 5242093.0 ], [ 576905.0, 5242093.0 ], [ 576905.0, 5242091.0 ], [ 576904.0, 5242091.0 ], [ 576904.0, 5242088.0 ], [ 576903.0, 5242088.0 ], [ 576903.0, 5242086.0 ], [ 576902.0, 5242086.0 ], [ 576902.0, 5242084.0 ], [ 576901.0, 5242084.0 ], [ 576901.0, 5242082.0 ], [ 576900.0, 5242082.0 ], [ 576900.0, 5242080.0 ], [ 576899.0, 5242080.0 ], [ 576899.0, 5242078.0 ], [ 576898.0, 5242078.0 ], [ 576898.0, 5242075.0 ], [ 576897.0, 5242075.0 ], [ 576897.0, 5242074.0 ], [ 576895.0, 5242073.0 ], [ 576895.0, 5242067.0 ], [ 576896.0, 5242067.0 ], [ 576896.0, 5242066.0 ], [ 576895.0, 5242066.0 ], [ 576895.0, 5242063.0 ], [ 576896.0, 5242063.0 ], [ 576896.0, 5242056.0 ], [ 576897.0, 5242056.0 ], [ 576897.0, 5242051.0 ], [ 576898.0, 5242051.0 ], [ 576898.0, 5242034.0 ], [ 576897.0, 5242034.0 ], [ 576898.0, 5242028.0 ], [ 576897.0, 5242028.0 ], [ 576897.0, 5242025.0 ], [ 576898.0, 5242025.0 ], [ 576898.0, 5242018.0 ], [ 576899.0, 5242018.0 ], [ 576899.0, 5242012.0 ], [ 576898.0, 5242012.0 ], [ 576898.0, 5242009.0 ], [ 576897.0, 5242009.0 ], [ 576897.0, 5242006.0 ], [ 576896.0, 5242006.0 ], [ 576896.0, 5242003.0 ], [ 576895.0, 5242003.0 ], [ 576895.0, 5242002.0 ], [ 576896.0, 5242002.0 ], [ 576896.0, 5241976.0 ], [ 576897.0, 5241976.0 ], [ 576897.0, 5241974.0 ], [ 576896.0, 5241974.0 ], [ 576896.0, 5241972.0 ], [ 576895.0, 5241972.0 ], [ 576895.0, 5241967.0 ], [ 576894.0, 5241967.0 ], [ 576894.0, 5241965.0 ], [ 576895.0, 5241965.0 ], [ 576895.0, 5241961.0 ], [ 576894.0, 5241961.0 ], [ 576894.0, 5241960.0 ], [ 576895.0, 5241960.0 ], [ 576894.0, 5241952.0 ], [ 576895.0, 5241952.0 ], [ 576895.0, 5241948.0 ], [ 576896.0, 5241948.0 ], [ 576896.0, 5241946.0 ], [ 576895.0, 5241946.0 ], [ 576895.0, 5241944.0 ], [ 576896.0, 5241944.0 ], [ 576896.0, 5241941.0 ], [ 576895.0, 5241941.0 ], [ 576895.0, 5241939.0 ], [ 576894.0, 5241939.0 ], [ 576894.0, 5241937.0 ], [ 576893.0, 5241937.0 ], [ 576894.0, 5241933.0 ], [ 576893.0, 5241933.0 ], [ 576893.0, 5241931.0 ], [ 576892.0, 5241931.0 ], [ 576892.0, 5241929.0 ], [ 576893.0, 5241929.0 ], [ 576893.0, 5241925.0 ], [ 576891.0, 5241924.0 ], [ 576891.0, 5241922.0 ], [ 576892.0, 5241922.0 ], [ 576892.0, 5241921.0 ], [ 576891.0, 5241921.0 ], [ 576891.0, 5241920.0 ], [ 576889.0, 5241919.0 ], [ 576889.0, 5241915.0 ], [ 576888.0, 5241915.0 ], [ 576888.0, 5241912.0 ], [ 576887.0, 5241912.0 ], [ 576887.0, 5241911.0 ], [ 576885.0, 5241910.0 ], [ 576885.0, 5241908.0 ], [ 576884.0, 5241908.0 ], [ 576883.0, 5241904.0 ], [ 576881.0, 5241903.0 ], [ 576881.0, 5241901.0 ], [ 576880.0, 5241901.0 ], [ 576881.0, 5241899.0 ], [ 576880.0, 5241899.0 ], [ 576880.0, 5241898.0 ], [ 576878.0, 5241897.0 ], [ 576878.0, 5241895.0 ], [ 576877.0, 5241895.0 ], [ 576877.0, 5241892.0 ], [ 576876.0, 5241892.0 ], [ 576876.0, 5241889.0 ], [ 576875.0, 5241889.0 ], [ 576875.0, 5241887.0 ], [ 576874.0, 5241887.0 ], [ 576874.0, 5241886.0 ], [ 576872.0, 5241885.0 ], [ 576871.0, 5241879.0 ], [ 576869.0, 5241878.0 ], [ 576869.0, 5241876.0 ], [ 576868.0, 5241876.0 ], [ 576868.0, 5241874.0 ], [ 576866.0, 5241873.0 ], [ 576866.0, 5241870.0 ], [ 576865.0, 5241870.0 ], [ 576865.0, 5241868.0 ], [ 576864.0, 5241868.0 ], [ 576864.0, 5241864.0 ], [ 576863.0, 5241864.0 ], [ 576863.0, 5241862.0 ], [ 576864.0, 5241862.0 ], [ 576864.0, 5241861.0 ], [ 576863.0, 5241861.0 ], [ 576863.0, 5241856.0 ], [ 576862.0, 5241856.0 ], [ 576862.0, 5241852.0 ], [ 576861.0, 5241852.0 ], [ 576861.0, 5241849.0 ], [ 576860.0, 5241849.0 ], [ 576860.0, 5241845.0 ], [ 576859.0, 5241845.0 ], [ 576859.0, 5241840.0 ], [ 576858.0, 5241840.0 ], [ 576858.0, 5241835.0 ], [ 576859.0, 5241835.0 ], [ 576859.0, 5241834.0 ], [ 576858.0, 5241834.0 ], [ 576858.0, 5241833.0 ], [ 576859.0, 5241833.0 ], [ 576859.0, 5241827.0 ], [ 576858.0, 5241827.0 ], [ 576858.0, 5241822.0 ], [ 576857.0, 5241822.0 ], [ 576857.0, 5241816.0 ], [ 576858.0, 5241816.0 ], [ 576859.0, 5241814.0 ], [ 576857.0, 5241813.0 ], [ 576857.0, 5241812.0 ], [ 576858.0, 5241812.0 ], [ 576858.0, 5241809.0 ], [ 576857.0, 5241809.0 ], [ 576857.0, 5241802.0 ], [ 576856.0, 5241802.0 ], [ 576856.0, 5241798.0 ], [ 576857.0, 5241798.0 ], [ 576857.0, 5241797.0 ], [ 576856.0, 5241797.0 ], [ 576856.0, 5241793.0 ], [ 576857.0, 5241793.0 ], [ 576857.0, 5241785.0 ], [ 576858.0, 5241785.0 ], [ 576858.0, 5241780.0 ], [ 576860.0, 5241779.0 ], [ 576860.0, 5241775.0 ], [ 576861.0, 5241775.0 ], [ 576861.0, 5241773.0 ], [ 576862.0, 5241773.0 ], [ 576862.0, 5241772.0 ], [ 576861.0, 5241772.0 ], [ 576861.0, 5241771.0 ], [ 576862.0, 5241771.0 ], [ 576862.0, 5241766.0 ], [ 576864.0, 5241766.0 ], [ 576864.0, 5241765.0 ], [ 576866.0, 5241764.0 ], [ 576866.0, 5241762.0 ], [ 576864.0, 5241761.0 ], [ 576864.0, 5241760.0 ], [ 576865.0, 5241760.0 ], [ 576865.0, 5241752.0 ], [ 576866.0, 5241752.0 ], [ 576866.0, 5241750.0 ], [ 576865.0, 5241750.0 ], [ 576865.0, 5241744.0 ], [ 576866.0, 5241744.0 ], [ 576866.0, 5241743.0 ], [ 576867.0, 5241743.0 ], [ 576867.0, 5241742.0 ], [ 576869.0, 5241741.0 ], [ 576869.0, 5241735.0 ], [ 576871.0, 5241734.0 ], [ 576871.0, 5241733.0 ], [ 576870.0, 5241733.0 ], [ 576870.0, 5241732.0 ], [ 576871.0, 5241732.0 ], [ 576871.0, 5241730.0 ], [ 576870.0, 5241730.0 ], [ 576870.0, 5241729.0 ], [ 576868.0, 5241728.0 ], [ 576868.0, 5241726.0 ], [ 576869.0, 5241726.0 ], [ 576869.0, 5241725.0 ], [ 576871.0, 5241724.0 ], [ 576871.0, 5241721.0 ], [ 576873.0, 5241720.0 ], [ 576873.0, 5241716.0 ], [ 576875.0, 5241715.0 ], [ 576875.0, 5241713.0 ], [ 576873.0, 5241712.0 ], [ 576873.0, 5241711.0 ], [ 576874.0, 5241711.0 ], [ 576875.0, 5241709.0 ], [ 576874.0, 5241709.0 ], [ 576874.0, 5241708.0 ], [ 576873.0, 5241708.0 ], [ 576872.0, 5241706.0 ], [ 576873.0, 5241706.0 ], [ 576873.0, 5241700.0 ], [ 576875.0, 5241699.0 ], [ 576875.0, 5241696.0 ], [ 576876.0, 5241696.0 ], [ 576875.0, 5241694.0 ], [ 576876.0, 5241694.0 ], [ 576876.0, 5241692.0 ], [ 576877.0, 5241692.0 ], [ 576877.0, 5241674.0 ], [ 576878.0, 5241674.0 ], [ 576878.0, 5241665.0 ], [ 576879.0, 5241665.0 ], [ 576879.0, 5241658.0 ], [ 576880.0, 5241658.0 ], [ 576880.0, 5241651.0 ], [ 576881.0, 5241651.0 ], [ 576880.0, 5241649.0 ], [ 576881.0, 5241649.0 ], [ 576881.0, 5241648.0 ], [ 576882.0, 5241648.0 ], [ 576882.0, 5241647.0 ], [ 576884.0, 5241646.0 ], [ 576884.0, 5241645.0 ], [ 576882.0, 5241644.0 ], [ 576882.0, 5241641.0 ], [ 576883.0, 5241641.0 ], [ 576883.0, 5241638.0 ], [ 576882.0, 5241638.0 ], [ 576882.0, 5241637.0 ], [ 576883.0, 5241637.0 ], [ 576883.0, 5241631.0 ], [ 576884.0, 5241631.0 ], [ 576884.0, 5241630.0 ], [ 576883.0, 5241630.0 ], [ 576883.0, 5241629.0 ], [ 576881.0, 5241628.0 ], [ 576881.0, 5241625.0 ], [ 576882.0, 5241625.0 ], [ 576882.0, 5241623.0 ], [ 576880.0, 5241622.0 ], [ 576880.0, 5241617.0 ], [ 576879.0, 5241617.0 ], [ 576879.0, 5241616.0 ], [ 576880.0, 5241616.0 ], [ 576880.0, 5241615.0 ], [ 576879.0, 5241615.0 ], [ 576879.0, 5241613.0 ], [ 576880.0, 5241613.0 ], [ 576880.0, 5241611.0 ], [ 576881.0, 5241611.0 ], [ 576881.0, 5241605.0 ], [ 576880.0, 5241605.0 ], [ 576880.0, 5241602.0 ], [ 576878.0, 5241601.0 ], [ 576878.0, 5241592.0 ], [ 576877.0, 5241592.0 ], [ 576877.0, 5241585.0 ], [ 576876.0, 5241585.0 ], [ 576875.0, 5241583.0 ], [ 576873.0, 5241583.0 ], [ 576873.0, 5241581.0 ], [ 576872.0, 5241581.0 ], [ 576872.0, 5241580.0 ], [ 576870.0, 5241579.0 ], [ 576870.0, 5241576.0 ], [ 576871.0, 5241576.0 ], [ 576871.0, 5241574.0 ], [ 576870.0, 5241574.0 ], [ 576869.0, 5241572.0 ], [ 576867.0, 5241572.0 ], [ 576867.0, 5241573.0 ], [ 576866.0, 5241573.0 ], [ 576865.0, 5241575.0 ], [ 576863.0, 5241575.0 ], [ 576863.0, 5241576.0 ], [ 576861.0, 5241576.0 ], [ 576861.0, 5241577.0 ], [ 576859.0, 5241578.0 ], [ 576859.0, 5241581.0 ], [ 576858.0, 5241581.0 ], [ 576858.0, 5241583.0 ], [ 576859.0, 5241583.0 ], [ 576859.0, 5241584.0 ], [ 576858.0, 5241584.0 ], [ 576858.0, 5241591.0 ], [ 576857.0, 5241591.0 ], [ 576857.0, 5241596.0 ], [ 576856.0, 5241596.0 ], [ 576856.0, 5241597.0 ], [ 576855.0, 5241597.0 ], [ 576854.0, 5241599.0 ], [ 576852.0, 5241599.0 ], [ 576852.0, 5241600.0 ], [ 576848.0, 5241601.0 ], [ 576847.0, 5241603.0 ], [ 576845.0, 5241603.0 ], [ 576845.0, 5241602.0 ], [ 576846.0, 5241602.0 ], [ 576846.0, 5241599.0 ], [ 576845.0, 5241599.0 ], [ 576845.0, 5241598.0 ], [ 576844.0, 5241598.0 ], [ 576844.0, 5241597.0 ], [ 576842.0, 5241596.0 ], [ 576842.0, 5241597.0 ], [ 576840.0, 5241597.0 ], [ 576840.0, 5241598.0 ], [ 576839.0, 5241598.0 ], [ 576839.0, 5241599.0 ], [ 576838.0, 5241599.0 ], [ 576838.0, 5241600.0 ], [ 576836.0, 5241601.0 ], [ 576836.0, 5241603.0 ], [ 576837.0, 5241603.0 ], [ 576837.0, 5241605.0 ], [ 576836.0, 5241605.0 ], [ 576836.0, 5241604.0 ], [ 576834.0, 5241603.0 ], [ 576833.0, 5241597.0 ], [ 576832.0, 5241597.0 ], [ 576832.0, 5241596.0 ], [ 576831.0, 5241596.0 ], [ 576830.0, 5241594.0 ], [ 576822.0, 5241592.0 ], [ 576822.0, 5241593.0 ], [ 576820.0, 5241594.0 ], [ 576820.0, 5241596.0 ], [ 576818.0, 5241597.0 ], [ 576818.0, 5241599.0 ], [ 576817.0, 5241599.0 ], [ 576817.0, 5241600.0 ], [ 576815.0, 5241600.0 ], [ 576815.0, 5241601.0 ], [ 576814.0, 5241601.0 ], [ 576814.0, 5241602.0 ], [ 576812.0, 5241603.0 ], [ 576812.0, 5241606.0 ], [ 576811.0, 5241606.0 ], [ 576811.0, 5241608.0 ], [ 576810.0, 5241608.0 ], [ 576810.0, 5241609.0 ], [ 576809.0, 5241609.0 ], [ 576809.0, 5241610.0 ], [ 576807.0, 5241611.0 ], [ 576807.0, 5241613.0 ], [ 576806.0, 5241613.0 ], [ 576806.0, 5241614.0 ], [ 576804.0, 5241615.0 ], [ 576804.0, 5241618.0 ], [ 576803.0, 5241618.0 ], [ 576803.0, 5241619.0 ], [ 576801.0, 5241620.0 ], [ 576801.0, 5241622.0 ], [ 576797.0, 5241623.0 ], [ 576797.0, 5241624.0 ], [ 576795.0, 5241625.0 ], [ 576795.0, 5241627.0 ], [ 576793.0, 5241627.0 ], [ 576793.0, 5241628.0 ], [ 576791.0, 5241628.0 ], [ 576791.0, 5241629.0 ], [ 576789.0, 5241630.0 ], [ 576789.0, 5241636.0 ], [ 576790.0, 5241636.0 ], [ 576790.0, 5241637.0 ], [ 576789.0, 5241637.0 ], [ 576789.0, 5241640.0 ], [ 576787.0, 5241640.0 ], [ 576787.0, 5241641.0 ], [ 576783.0, 5241641.0 ], [ 576783.0, 5241640.0 ], [ 576781.0, 5241639.0 ], [ 576781.0, 5241636.0 ], [ 576782.0, 5241636.0 ], [ 576783.0, 5241634.0 ], [ 576782.0, 5241634.0 ], [ 576782.0, 5241633.0 ], [ 576781.0, 5241633.0 ], [ 576781.0, 5241632.0 ], [ 576779.0, 5241631.0 ], [ 576779.0, 5241632.0 ], [ 576778.0, 5241632.0 ], [ 576778.0, 5241633.0 ], [ 576776.0, 5241633.0 ], [ 576776.0, 5241634.0 ], [ 576775.0, 5241634.0 ], [ 576775.0, 5241635.0 ], [ 576774.0, 5241635.0 ], [ 576774.0, 5241636.0 ], [ 576773.0, 5241636.0 ], [ 576773.0, 5241637.0 ], [ 576772.0, 5241637.0 ], [ 576772.0, 5241638.0 ], [ 576770.0, 5241639.0 ], [ 576770.0, 5241641.0 ], [ 576769.0, 5241641.0 ], [ 576769.0, 5241642.0 ], [ 576768.0, 5241642.0 ], [ 576768.0, 5241643.0 ], [ 576767.0, 5241643.0 ], [ 576767.0, 5241644.0 ], [ 576766.0, 5241644.0 ], [ 576766.0, 5241645.0 ], [ 576765.0, 5241645.0 ], [ 576765.0, 5241646.0 ], [ 576763.0, 5241647.0 ], [ 576763.0, 5241654.0 ], [ 576760.0, 5241654.0 ], [ 576760.0, 5241655.0 ], [ 576759.0, 5241655.0 ], [ 576759.0, 5241656.0 ], [ 576758.0, 5241656.0 ], [ 576758.0, 5241657.0 ], [ 576756.0, 5241658.0 ], [ 576756.0, 5241671.0 ], [ 576757.0, 5241671.0 ], [ 576757.0, 5241673.0 ], [ 576756.0, 5241673.0 ], [ 576756.0, 5241674.0 ], [ 576757.0, 5241674.0 ], [ 576757.0, 5241686.0 ], [ 576758.0, 5241686.0 ], [ 576758.0, 5241694.0 ], [ 576759.0, 5241694.0 ], [ 576759.0, 5241701.0 ], [ 576760.0, 5241701.0 ], [ 576760.0, 5241720.0 ], [ 576761.0, 5241720.0 ], [ 576761.0, 5241728.0 ], [ 576762.0, 5241728.0 ], [ 576762.0, 5241742.0 ], [ 576763.0, 5241742.0 ], [ 576763.0, 5241745.0 ], [ 576762.0, 5241745.0 ], [ 576762.0, 5241749.0 ], [ 576763.0, 5241749.0 ], [ 576763.0, 5241752.0 ], [ 576762.0, 5241752.0 ], [ 576762.0, 5241755.0 ], [ 576761.0, 5241755.0 ], [ 576761.0, 5241760.0 ], [ 576760.0, 5241760.0 ], [ 576760.0, 5241763.0 ], [ 576761.0, 5241763.0 ], [ 576761.0, 5241766.0 ], [ 576762.0, 5241766.0 ], [ 576762.0, 5241767.0 ], [ 576761.0, 5241767.0 ], [ 576761.0, 5241779.0 ], [ 576760.0, 5241779.0 ], [ 576760.0, 5241781.0 ], [ 576759.0, 5241781.0 ], [ 576759.0, 5241783.0 ], [ 576758.0, 5241783.0 ], [ 576758.0, 5241785.0 ], [ 576757.0, 5241785.0 ], [ 576757.0, 5241788.0 ], [ 576755.0, 5241789.0 ], [ 576755.0, 5241791.0 ], [ 576754.0, 5241791.0 ], [ 576754.0, 5241793.0 ], [ 576753.0, 5241793.0 ], [ 576753.0, 5241796.0 ], [ 576752.0, 5241796.0 ], [ 576752.0, 5241798.0 ], [ 576751.0, 5241798.0 ], [ 576751.0, 5241800.0 ], [ 576750.0, 5241800.0 ], [ 576750.0, 5241802.0 ], [ 576749.0, 5241802.0 ], [ 576749.0, 5241804.0 ], [ 576748.0, 5241804.0 ], [ 576748.0, 5241806.0 ], [ 576747.0, 5241806.0 ], [ 576747.0, 5241808.0 ], [ 576746.0, 5241808.0 ], [ 576745.0, 5241812.0 ], [ 576743.0, 5241813.0 ], [ 576743.0, 5241816.0 ], [ 576742.0, 5241816.0 ], [ 576742.0, 5241819.0 ], [ 576741.0, 5241819.0 ], [ 576740.0, 5241823.0 ], [ 576738.0, 5241824.0 ], [ 576738.0, 5241826.0 ], [ 576737.0, 5241826.0 ], [ 576737.0, 5241827.0 ], [ 576735.0, 5241828.0 ], [ 576735.0, 5241830.0 ], [ 576734.0, 5241830.0 ], [ 576734.0, 5241831.0 ], [ 576733.0, 5241831.0 ], [ 576733.0, 5241833.0 ], [ 576731.0, 5241834.0 ], [ 576731.0, 5241836.0 ], [ 576730.0, 5241836.0 ], [ 576730.0, 5241838.0 ], [ 576729.0, 5241838.0 ], [ 576729.0, 5241841.0 ], [ 576728.0, 5241841.0 ], [ 576728.0, 5241843.0 ], [ 576727.0, 5241843.0 ], [ 576726.0, 5241847.0 ], [ 576724.0, 5241848.0 ], [ 576724.0, 5241850.0 ], [ 576723.0, 5241850.0 ], [ 576723.0, 5241852.0 ], [ 576721.0, 5241853.0 ], [ 576720.0, 5241857.0 ], [ 576718.0, 5241858.0 ], [ 576718.0, 5241860.0 ], [ 576717.0, 5241860.0 ], [ 576717.0, 5241861.0 ], [ 576716.0, 5241861.0 ], [ 576716.0, 5241863.0 ], [ 576714.0, 5241864.0 ], [ 576714.0, 5241868.0 ], [ 576713.0, 5241868.0 ], [ 576713.0, 5241870.0 ], [ 576711.0, 5241871.0 ], [ 576711.0, 5241873.0 ], [ 576710.0, 5241873.0 ], [ 576709.0, 5241877.0 ], [ 576707.0, 5241878.0 ], [ 576707.0, 5241884.0 ], [ 576706.0, 5241884.0 ], [ 576706.0, 5241885.0 ], [ 576704.0, 5241886.0 ], [ 576705.0, 5241888.0 ], [ 576704.0, 5241888.0 ], [ 576704.0, 5241890.0 ], [ 576702.0, 5241891.0 ], [ 576702.0, 5241894.0 ], [ 576700.0, 5241895.0 ], [ 576700.0, 5241897.0 ], [ 576699.0, 5241897.0 ], [ 576699.0, 5241900.0 ], [ 576698.0, 5241900.0 ], [ 576698.0, 5241902.0 ], [ 576697.0, 5241902.0 ], [ 576697.0, 5241909.0 ], [ 576696.0, 5241909.0 ], [ 576696.0, 5241912.0 ], [ 576695.0, 5241912.0 ], [ 576695.0, 5241913.0 ], [ 576696.0, 5241913.0 ], [ 576696.0, 5241918.0 ], [ 576695.0, 5241918.0 ], [ 576695.0, 5241919.0 ], [ 576693.0, 5241920.0 ], [ 576693.0, 5241922.0 ], [ 576694.0, 5241922.0 ], [ 576694.0, 5241923.0 ], [ 576693.0, 5241923.0 ], [ 576693.0, 5241931.0 ], [ 576692.0, 5241931.0 ], [ 576692.0, 5241936.0 ], [ 576691.0, 5241936.0 ], [ 576691.0, 5241945.0 ], [ 576692.0, 5241945.0 ], [ 576692.0, 5241958.0 ], [ 576693.0, 5241958.0 ], [ 576692.0, 5241960.0 ], [ 576693.0, 5241960.0 ], [ 576693.0, 5241966.0 ], [ 576694.0, 5241966.0 ], [ 576694.0, 5241967.0 ], [ 576693.0, 5241967.0 ], [ 576693.0, 5241969.0 ], [ 576694.0, 5241969.0 ], [ 576694.0, 5241981.0 ], [ 576693.0, 5241981.0 ], [ 576693.0, 5241982.0 ], [ 576694.0, 5241982.0 ], [ 576694.0, 5241983.0 ], [ 576693.0, 5241983.0 ], [ 576693.0, 5241994.0 ], [ 576692.0, 5241994.0 ], [ 576692.0, 5241997.0 ], [ 576693.0, 5241997.0 ], [ 576693.0, 5242000.0 ], [ 576692.0, 5242000.0 ], [ 576692.0, 5242008.0 ], [ 576691.0, 5242008.0 ], [ 576691.0, 5242011.0 ], [ 576690.0, 5242011.0 ], [ 576690.0, 5242012.0 ], [ 576691.0, 5242012.0 ], [ 576691.0, 5242013.0 ], [ 576690.0, 5242013.0 ], [ 576690.0, 5242043.0 ], [ 576691.0, 5242043.0 ], [ 576691.0, 5242050.0 ], [ 576690.0, 5242050.0 ], [ 576690.0, 5242081.0 ], [ 576691.0, 5242081.0 ], [ 576691.0, 5242083.0 ], [ 576692.0, 5242083.0 ], [ 576692.0, 5242084.0 ], [ 576693.0, 5242084.0 ], [ 576693.0, 5242085.0 ], [ 576695.0, 5242086.0 ], [ 576695.0, 5242088.0 ], [ 576697.0, 5242089.0 ], [ 576697.0, 5242098.0 ], [ 576698.0, 5242098.0 ], [ 576698.0, 5242102.0 ], [ 576699.0, 5242102.0 ], [ 576699.0, 5242106.0 ], [ 576700.0, 5242106.0 ], [ 576700.0, 5242107.0 ], [ 576699.0, 5242107.0 ], [ 576699.0, 5242108.0 ], [ 576700.0, 5242108.0 ], [ 576700.0, 5242113.0 ], [ 576702.0, 5242114.0 ], [ 576702.0, 5242117.0 ], [ 576704.0, 5242118.0 ], [ 576704.0, 5242122.0 ], [ 576705.0, 5242122.0 ], [ 576705.0, 5242125.0 ], [ 576706.0, 5242125.0 ], [ 576706.0, 5242130.0 ], [ 576707.0, 5242130.0 ], [ 576707.0, 5242136.0 ], [ 576708.0, 5242136.0 ], [ 576708.0, 5242138.0 ], [ 576709.0, 5242138.0 ], [ 576709.0, 5242146.0 ], [ 576708.0, 5242146.0 ], [ 576708.0, 5242148.0 ], [ 576709.0, 5242148.0 ], [ 576709.0, 5242153.0 ], [ 576710.0, 5242153.0 ], [ 576710.0, 5242156.0 ], [ 576709.0, 5242156.0 ], [ 576709.0, 5242160.0 ], [ 576710.0, 5242160.0 ], [ 576710.0, 5242162.0 ], [ 576711.0, 5242162.0 ], [ 576711.0, 5242166.0 ], [ 576710.0, 5242166.0 ], [ 576710.0, 5242171.0 ], [ 576711.0, 5242171.0 ], [ 576711.0, 5242173.0 ], [ 576712.0, 5242173.0 ], [ 576712.0, 5242175.0 ], [ 576713.0, 5242175.0 ], [ 576713.0, 5242178.0 ], [ 576714.0, 5242178.0 ], [ 576714.0, 5242182.0 ], [ 576715.0, 5242182.0 ], [ 576715.0, 5242184.0 ], [ 576716.0, 5242184.0 ], [ 576716.0, 5242186.0 ], [ 576717.0, 5242186.0 ], [ 576717.0, 5242192.0 ], [ 576718.0, 5242192.0 ], [ 576718.0, 5242194.0 ], [ 576719.0, 5242194.0 ], [ 576719.0, 5242197.0 ], [ 576720.0, 5242197.0 ], [ 576720.0, 5242201.0 ], [ 576721.0, 5242201.0 ], [ 576721.0, 5242203.0 ], [ 576722.0, 5242203.0 ], [ 576723.0, 5242207.0 ], [ 576724.0, 5242207.0 ], [ 576724.0, 5242208.0 ], [ 576725.0, 5242208.0 ], [ 576725.0, 5242209.0 ], [ 576726.0, 5242209.0 ], [ 576726.0, 5242210.0 ], [ 576727.0, 5242210.0 ], [ 576727.0, 5242211.0 ], [ 576729.0, 5242212.0 ], [ 576729.0, 5242215.0 ], [ 576730.0, 5242215.0 ], [ 576731.0, 5242217.0 ], [ 576734.0, 5242217.0 ], [ 576734.0, 5242218.0 ], [ 576735.0, 5242218.0 ], [ 576735.0, 5242219.0 ], [ 576736.0, 5242219.0 ], [ 576737.0, 5242221.0 ], [ 576740.0, 5242221.0 ], [ 576740.0, 5242222.0 ], [ 576742.0, 5242222.0 ], [ 576742.0, 5242223.0 ], [ 576744.0, 5242223.0 ], [ 576744.0, 5242224.0 ], [ 576747.0, 5242224.0 ], [ 576747.0, 5242225.0 ], [ 576750.0, 5242225.0 ], [ 576750.0, 5242226.0 ], [ 576754.0, 5242226.0 ], [ 576754.0, 5242227.0 ], [ 576756.0, 5242227.0 ] ] ] } },
{ "type": "Feature", "properties": { "name": "West stockpile", "kind": "pile", "source_survey": "osmre2023", "relief_m": 1.0, "pad_m": 2.0, "edge_contact": 0.05 }, "geometry": { "type": "Polygon", "coordinates": [ [ [ 575737.0, 5241161.0 ], [ 575737.0, 5241160.0 ], [ 575736.0, 5241160.0 ], [ 575736.0, 5241159.0 ], [ 575735.0, 5241159.0 ], [ 575735.0, 5241158.0 ], [ 575734.0, 5241158.0 ], [ 575733.0, 5241156.0 ], [ 575730.0, 5241156.0 ], [ 575730.0, 5241155.0 ], [ 575727.0, 5241155.0 ], [ 575727.0, 5241154.0 ], [ 575725.0, 5241154.0 ], [ 575725.0, 5241153.0 ], [ 575721.0, 5241153.0 ], [ 575721.0, 5241152.0 ], [ 575719.0, 5241152.0 ], [ 575719.0, 5241151.0 ], [ 575715.0, 5241151.0 ], [ 575715.0, 5241150.0 ], [ 575712.0, 5241150.0 ], [ 575712.0, 5241149.0 ], [ 575709.0, 5241149.0 ], [ 575709.0, 5241148.0 ], [ 575700.0, 5241148.0 ], [ 575700.0, 5241149.0 ], [ 575698.0, 5241148.0 ], [ 575698.0, 5241149.0 ], [ 575693.0, 5241149.0 ], [ 575693.0, 5241150.0 ], [ 575691.0, 5241150.0 ], [ 575691.0, 5241149.0 ], [ 575689.0, 5241149.0 ], [ 575689.0, 5241148.0 ], [ 575686.0, 5241148.0 ], [ 575686.0, 5241147.0 ], [ 575677.0, 5241147.0 ], [ 575677.0, 5241146.0 ], [ 575675.0, 5241146.0 ], [ 575675.0, 5241145.0 ], [ 575674.0, 5241145.0 ], [ 575674.0, 5241146.0 ], [ 575673.0, 5241146.0 ], [ 575673.0, 5241145.0 ], [ 575669.0, 5241145.0 ], [ 575668.0, 5241147.0 ], [ 575665.0, 5241147.0 ], [ 575664.0, 5241145.0 ], [ 575657.0, 5241145.0 ], [ 575656.0, 5241143.0 ], [ 575648.0, 5241143.0 ], [ 575648.0, 5241142.0 ], [ 575628.0, 5241142.0 ], [ 575628.0, 5241143.0 ], [ 575627.0, 5241143.0 ], [ 575627.0, 5241142.0 ], [ 575625.0, 5241142.0 ], [ 575625.0, 5241143.0 ], [ 575613.0, 5241143.0 ], [ 575613.0, 5241144.0 ], [ 575610.0, 5241144.0 ], [ 575610.0, 5241143.0 ], [ 575595.0, 5241143.0 ], [ 575595.0, 5241142.0 ], [ 575592.0, 5241142.0 ], [ 575592.0, 5241143.0 ], [ 575590.0, 5241143.0 ], [ 575590.0, 5241142.0 ], [ 575589.0, 5241142.0 ], [ 575589.0, 5241143.0 ], [ 575581.0, 5241143.0 ], [ 575581.0, 5241142.0 ], [ 575578.0, 5241142.0 ], [ 575578.0, 5241143.0 ], [ 575574.0, 5241143.0 ], [ 575574.0, 5241142.0 ], [ 575563.0, 5241142.0 ], [ 575563.0, 5241141.0 ], [ 575556.0, 5241141.0 ], [ 575556.0, 5241142.0 ], [ 575551.0, 5241142.0 ], [ 575551.0, 5241141.0 ], [ 575550.0, 5241141.0 ], [ 575550.0, 5241142.0 ], [ 575543.0, 5241142.0 ], [ 575543.0, 5241141.0 ], [ 575542.0, 5241141.0 ], [ 575542.0, 5241142.0 ], [ 575540.0, 5241142.0 ], [ 575539.0, 5241144.0 ], [ 575536.0, 5241144.0 ], [ 575536.0, 5241143.0 ], [ 575529.0, 5241143.0 ], [ 575528.0, 5241141.0 ], [ 575522.0, 5241141.0 ], [ 575522.0, 5241140.0 ], [ 575518.0, 5241139.0 ], [ 575517.0, 5241137.0 ], [ 575516.0, 5241137.0 ], [ 575516.0, 5241138.0 ], [ 575512.0, 5241138.0 ], [ 575511.0, 5241136.0 ], [ 575509.0, 5241136.0 ], [ 575509.0, 5241135.0 ], [ 575504.0, 5241135.0 ], [ 575503.0, 5241133.0 ], [ 575500.0, 5241133.0 ], [ 575500.0, 5241132.0 ], [ 575498.0, 5241132.0 ], [ 575498.0, 5241131.0 ], [ 575496.0, 5241131.0 ], [ 575496.0, 5241130.0 ], [ 575490.0, 5241130.0 ], [ 575490.0, 5241129.0 ], [ 575488.0, 5241128.0 ], [ 575488.0, 5241126.0 ], [ 575487.0, 5241126.0 ], [ 575487.0, 5241125.0 ], [ 575483.0, 5241124.0 ], [ 575482.0, 5241122.0 ], [ 575480.0, 5241123.0 ], [ 575480.0, 5241122.0 ], [ 575479.0, 5241122.0 ], [ 575479.0, 5241121.0 ], [ 575478.0, 5241121.0 ], [ 575478.0, 5241120.0 ], [ 575477.0, 5241120.0 ], [ 575477.0, 5241119.0 ], [ 575476.0, 5241119.0 ], [ 575475.0, 5241117.0 ], [ 575473.0, 5241117.0 ], [ 575473.0, 5241116.0 ], [ 575472.0, 5241116.0 ], [ 575471.0, 5241114.0 ], [ 575469.0, 5241114.0 ], [ 575469.0, 5241113.0 ], [ 575467.0, 5241114.0 ], [ 575467.0, 5241113.0 ], [ 575466.0, 5241113.0 ], [ 575466.0, 5241112.0 ], [ 575464.0, 5241111.0 ], [ 575464.0, 5241109.0 ], [ 575462.0, 5241109.0 ], [ 575462.0, 5241108.0 ], [ 575455.0, 5241108.0 ], [ 575454.0, 5241106.0 ], [ 575452.0, 5241106.0 ], [ 575452.0, 5241107.0 ], [ 575451.0, 5241107.0 ], [ 575451.0, 5241106.0 ], [ 575449.0, 5241105.0 ], [ 575449.0, 5241103.0 ], [ 575447.0, 5241102.0 ], [ 575447.0, 5241100.0 ], [ 575446.0, 5241100.0 ], [ 575446.0, 5241101.0 ], [ 575444.0, 5241102.0 ], [ 575444.0, 5241104.0 ], [ 575442.0, 5241105.0 ], [ 575442.0, 5241107.0 ], [ 575441.0, 5241107.0 ], [ 575440.0, 5241109.0 ], [ 575439.0, 5241109.0 ], [ 575439.0, 5241108.0 ], [ 575438.0, 5241108.0 ], [ 575438.0, 5241109.0 ], [ 575437.0, 5241109.0 ], [ 575437.0, 5241108.0 ], [ 575434.0, 5241108.0 ], [ 575434.0, 5241109.0 ], [ 575432.0, 5241109.0 ], [ 575432.0, 5241108.0 ], [ 575428.0, 5241108.0 ], [ 575428.0, 5241109.0 ], [ 575427.0, 5241109.0 ], [ 575427.0, 5241108.0 ], [ 575425.0, 5241108.0 ], [ 575425.0, 5241109.0 ], [ 575424.0, 5241109.0 ], [ 575424.0, 5241113.0 ], [ 575423.0, 5241113.0 ], [ 575422.0, 5241115.0 ], [ 575419.0, 5241115.0 ], [ 575419.0, 5241116.0 ], [ 575417.0, 5241116.0 ], [ 575416.0, 5241118.0 ], [ 575415.0, 5241118.0 ], [ 575415.0, 5241117.0 ], [ 575413.0, 5241117.0 ], [ 575413.0, 5241118.0 ], [ 575405.0, 5241118.0 ], [ 575405.0, 5241119.0 ], [ 575404.0, 5241119.0 ], [ 575404.0, 5241118.0 ], [ 575400.0, 5241118.0 ], [ 575400.0, 5241117.0 ], [ 575398.0, 5241117.0 ], [ 575398.0, 5241116.0 ], [ 575396.0, 5241115.0 ], [ 575396.0, 5241113.0 ], [ 575397.0, 5241113.0 ], [ 575398.0, 5241111.0 ], [ 575400.0, 5241111.0 ], [ 575400.0, 5241110.0 ], [ 575401.0, 5241110.0 ], [ 575401.0, 5241109.0 ], [ 575402.0, 5241109.0 ], [ 575402.0, 5241108.0 ], [ 575403.0, 5241108.0 ], [ 575404.0, 5241106.0 ], [ 575408.0, 5241106.0 ], [ 575408.0, 5241105.0 ], [ 575410.0, 5241104.0 ], [ 575410.0, 5241103.0 ], [ 575408.0, 5241102.0 ], [ 575408.0, 5241100.0 ], [ 575407.0, 5241100.0 ], [ 575407.0, 5241095.0 ], [ 575406.0, 5241095.0 ], [ 575406.0, 5241090.0 ], [ 575405.0, 5241090.0 ], [ 575405.0, 5241089.0 ], [ 575406.0, 5241089.0 ], [ 575406.0, 5241087.0 ], [ 575405.0, 5241087.0 ], [ 575405.0, 5241081.0 ], [ 575406.0, 5241081.0 ], [ 575406.0, 5241079.0 ], [ 575407.0, 5241079.0 ], [ 575407.0, 5241078.0 ], [ 575406.0, 5241078.0 ], [ 575407.0, 5241076.0 ], [ 575405.0, 5241075.0 ], [ 575405.0, 5241076.0 ], [ 575403.0, 5241077.0 ], [ 575403.0, 5241076.0 ], [ 575401.0, 5241075.0 ], [ 575401.0, 5241073.0 ], [ 575400.0, 5241073.0 ], [ 575400.0, 5241072.0 ], [ 575401.0, 5241072.0 ], [ 575401.0, 5241068.0 ], [ 575400.0, 5241068.0 ], [ 575400.0, 5241066.0 ], [ 575399.0, 5241066.0 ], [ 575399.0, 5241061.0 ], [ 575400.0, 5241061.0 ], [ 575400.0, 5241055.0 ], [ 575401.0, 5241055.0 ], [ 575399.0, 5241051.0 ], [ 575400.0, 5241051.0 ], [ 575400.0, 5241048.0 ], [ 575401.0, 5241048.0 ], [ 575401.0, 5241047.0 ], [ 575400.0, 5241047.0 ], [ 575400.0, 5241044.0 ], [ 575401.0, 5241044.0 ], [ 575401.0, 5241040.0 ], [ 575402.0, 5241040.0 ], [ 575402.0, 5241037.0 ], [ 575403.0, 5241037.0 ], [ 575403.0, 5241029.0 ], [ 575405.0, 5241028.0 ], [ 575405.0, 5241024.0 ], [ 575406.0, 5241024.0 ], [ 575406.0, 5241019.0 ], [ 575407.0, 5241019.0 ], [ 575407.0, 5241009.0 ], [ 575406.0, 5241009.0 ], [ 575406.0, 5241007.0 ], [ 575405.0, 5241007.0 ], [ 575405.0, 5241006.0 ], [ 575407.0, 5241005.0 ], [ 575407.0, 5241003.0 ], [ 575408.0, 5241003.0 ], [ 575408.0, 5241000.0 ], [ 575409.0, 5241000.0 ], [ 575409.0, 5240997.0 ], [ 575408.0, 5240997.0 ], [ 575408.0, 5240996.0 ], [ 575409.0, 5240996.0 ], [ 575409.0, 5240989.0 ], [ 575408.0, 5240989.0 ], [ 575408.0, 5240987.0 ], [ 575406.0, 5240986.0 ], [ 575406.0, 5240985.0 ], [ 575407.0, 5240985.0 ], [ 575407.0, 5240981.0 ], [ 575406.0, 5240981.0 ], [ 575406.0, 5240977.0 ], [ 575405.0, 5240977.0 ], [ 575406.0, 5240975.0 ], [ 575404.0, 5240974.0 ], [ 575404.0, 5240971.0 ], [ 575403.0, 5240971.0 ], [ 575403.0, 5240969.0 ], [ 575402.0, 5240969.0 ], [ 575402.0, 5240968.0 ], [ 575400.0, 5240968.0 ], [ 575400.0, 5240967.0 ], [ 575398.0, 5240966.0 ], [ 575398.0, 5240962.0 ], [ 575397.0, 5240962.0 ], [ 575397.0, 5240959.0 ], [ 575398.0, 5240959.0 ], [ 575398.0, 5240958.0 ], [ 575397.0, 5240958.0 ], [ 575397.0, 5240955.0 ], [ 575398.0, 5240955.0 ], [ 575398.0, 5240951.0 ], [ 575399.0, 5240951.0 ], [ 575399.0, 5240949.0 ], [ 575398.0, 5240949.0 ], [ 575398.0, 5240948.0 ], [ 575396.0, 5240947.0 ], [ 575396.0, 5240944.0 ], [ 575398.0, 5240943.0 ], [ 575398.0, 5240941.0 ], [ 575397.0, 5240941.0 ], [ 575397.0, 5240940.0 ], [ 575395.0, 5240939.0 ], [ 575395.0, 5240937.0 ], [ 575396.0, 5240937.0 ], [ 575396.0, 5240936.0 ], [ 575397.0, 5240936.0 ], [ 575397.0, 5240934.0 ], [ 575398.0, 5240934.0 ], [ 575398.0, 5240926.0 ], [ 575397.0, 5240926.0 ], [ 575397.0, 5240925.0 ], [ 575396.0, 5240925.0 ], [ 575395.0, 5240923.0 ], [ 575393.0, 5240923.0 ], [ 575393.0, 5240922.0 ], [ 575392.0, 5240922.0 ], [ 575392.0, 5240921.0 ], [ 575390.0, 5240920.0 ], [ 575390.0, 5240917.0 ], [ 575389.0, 5240917.0 ], [ 575389.0, 5240916.0 ], [ 575390.0, 5240916.0 ], [ 575390.0, 5240915.0 ], [ 575389.0, 5240915.0 ], [ 575389.0, 5240912.0 ], [ 575390.0, 5240912.0 ], [ 575390.0, 5240909.0 ], [ 575391.0, 5240909.0 ], [ 575391.0, 5240901.0 ], [ 575392.0, 5240901.0 ], [ 575392.0, 5240900.0 ], [ 575391.0, 5240900.0 ], [ 575391.0, 5240898.0 ], [ 575390.0, 5240898.0 ], [ 575390.0, 5240897.0 ], [ 575388.0, 5240896.0 ], [ 575388.0, 5240892.0 ], [ 575387.0, 5240892.0 ], [ 575388.0, 5240888.0 ], [ 575389.0, 5240888.0 ], [ 575389.0, 5240887.0 ], [ 575390.0, 5240887.0 ], [ 575391.0, 5240885.0 ], [ 575393.0, 5240885.0 ], [ 575394.0, 5240883.0 ], [ 575396.0, 5240883.0 ], [ 575396.0, 5240882.0 ], [ 575414.0, 5240881.0 ], [ 575414.0, 5240880.0 ], [ 575417.0, 5240880.0 ], [ 575418.0, 5240878.0 ], [ 575420.0, 5240878.0 ], [ 575420.0, 5240877.0 ], [ 575423.0, 5240877.0 ], [ 575423.0, 5240876.0 ], [ 575429.0, 5240876.0 ], [ 575429.0, 5240875.0 ], [ 575431.0, 5240875.0 ], [ 575431.0, 5240874.0 ], [ 575436.0, 5240874.0 ], [ 575436.0, 5240873.0 ], [ 575443.0, 5240873.0 ], [ 575443.0, 5240872.0 ], [ 575466.0, 5240872.0 ], [ 575467.0, 5240874.0 ], [ 575469.0, 5240874.0 ], [ 575469.0, 5240875.0 ], [ 575471.0, 5240875.0 ], [ 575471.0, 5240876.0 ], [ 575474.0, 5240876.0 ], [ 575474.0, 5240877.0 ], [ 575475.0, 5240877.0 ], [ 575475.0, 5240878.0 ], [ 575476.0, 5240878.0 ], [ 575476.0, 5240879.0 ], [ 575477.0, 5240879.0 ], [ 575478.0, 5240881.0 ], [ 575482.0, 5240881.0 ], [ 575482.0, 5240880.0 ], [ 575484.0, 5240880.0 ], [ 575484.0, 5240881.0 ], [ 575487.0, 5240881.0 ], [ 575487.0, 5240880.0 ], [ 575488.0, 5240880.0 ], [ 575489.0, 5240878.0 ], [ 575492.0, 5240878.0 ], [ 575492.0, 5240877.0 ], [ 575498.0, 5240876.0 ], [ 575498.0, 5240875.0 ], [ 575499.0, 5240875.0 ], [ 575500.0, 5240873.0 ], [ 575502.0, 5240873.0 ], [ 575502.0, 5240872.0 ], [ 575506.0, 5240872.0 ], [ 575506.0, 5240871.0 ], [ 575508.0, 5240871.0 ], [ 575508.0, 5240870.0 ], [ 575514.0, 5240870.0 ], [ 575514.0, 5240871.0 ], [ 575525.0, 5240871.0 ], [ 575525.0, 5240872.0 ], [ 575530.0, 5240872.0 ], [ 575530.0, 5240871.0 ], [ 575535.0, 5240871.0 ], [ 575536.0, 5240869.0 ], [ 575539.0, 5240869.0 ], [ 575539.0, 5240870.0 ], [ 575551.0, 5240870.0 ], [ 575551.0, 5240869.0 ], [ 575560.0, 5240869.0 ], [ 575560.0, 5240870.0 ], [ 575561.0, 5240870.0 ], [ 575561.0, 5240869.0 ], [ 575565.0, 5240869.0 ], [ 575565.0, 5240868.0 ], [ 575571.0, 5240868.0 ], [ 575571.0, 5240869.0 ], [ 575574.0, 5240869.0 ], [ 575574.0, 5240870.0 ], [ 575576.0, 5240870.0 ], [ 575576.0, 5240871.0 ], [ 575579.0, 5240871.0 ], [ 575579.0, 5240872.0 ], [ 575581.0, 5240872.0 ], [ 575581.0, 5240873.0 ], [ 575582.0, 5240873.0 ], [ 575582.0, 5240874.0 ], [ 575584.0, 5240875.0 ], [ 575583.0, 5240877.0 ], [ 575585.0, 5240877.0 ], [ 575585.0, 5240878.0 ], [ 575588.0, 5240878.0 ], [ 575588.0, 5240879.0 ], [ 575593.0, 5240879.0 ], [ 575593.0, 5240880.0 ], [ 575597.0, 5240880.0 ], [ 575597.0, 5240881.0 ], [ 575598.0, 5240881.0 ], [ 575598.0, 5240880.0 ], [ 575599.0, 5240880.0 ], [ 575599.0, 5240881.0 ], [ 575601.0, 5240881.0 ], [ 575601.0, 5240882.0 ], [ 575602.0, 5240882.0 ], [ 575602.0, 5240883.0 ], [ 575604.0, 5240884.0 ], [ 575604.0, 5240887.0 ], [ 575605.0, 5240887.0 ], [ 575605.0, 5240889.0 ], [ 575606.0, 5240889.0 ], [ 575606.0, 5240892.0 ], [ 575607.0, 5240892.0 ], [ 575607.0, 5240893.0 ], [ 575608.0, 5240893.0 ], [ 575608.0, 5240894.0 ], [ 575609.0, 5240894.0 ], [ 575610.0, 5240896.0 ], [ 575612.0, 5240896.0 ], [ 575612.0, 5240897.0 ], [ 575619.0, 5240897.0 ], [ 575619.0, 5240898.0 ], [ 575621.0, 5240898.0 ], [ 575622.0, 5240900.0 ], [ 575624.0, 5240900.0 ], [ 575624.0, 5240901.0 ], [ 575626.0, 5240901.0 ], [ 575626.0, 5240902.0 ], [ 575630.0, 5240902.0 ], [ 575630.0, 5240901.0 ], [ 575633.0, 5240901.0 ], [ 575634.0, 5240899.0 ], [ 575638.0, 5240899.0 ], [ 575638.0, 5240900.0 ], [ 575639.0, 5240900.0 ], [ 575639.0, 5240901.0 ], [ 575641.0, 5240902.0 ], [ 575641.0, 5240904.0 ], [ 575643.0, 5240904.0 ], [ 575643.0, 5240905.0 ], [ 575645.0, 5240906.0 ], [ 575645.0, 5240908.0 ], [ 575646.0, 5240908.0 ], [ 575646.0, 5240909.0 ], [ 575647.0, 5240909.0 ], [ 575647.0, 5240910.0 ], [ 575648.0, 5240910.0 ], [ 575649.0, 5240912.0 ], [ 575652.0, 5240912.0 ], [ 575652.0, 5240913.0 ], [ 575663.0, 5240913.0 ], [ 575663.0, 5240914.0 ], [ 575674.0, 5240914.0 ], [ 575674.0, 5240915.0 ], [ 575680.0, 5240915.0 ], [ 575680.0, 5240914.0 ], [ 575682.0, 5240914.0 ], [ 575682.0, 5240915.0 ], [ 575686.0, 5240915.0 ], [ 575686.0, 5240916.0 ], [ 575688.0, 5240916.0 ], [ 575689.0, 5240914.0 ], [ 575695.0, 5240914.0 ], [ 575695.0, 5240913.0 ], [ 575699.0, 5240913.0 ], [ 575699.0, 5240914.0 ], [ 575704.0, 5240914.0 ], [ 575704.0, 5240915.0 ], [ 575706.0, 5240914.0 ], [ 575706.0, 5240915.0 ], [ 575707.0, 5240915.0 ], [ 575707.0, 5240916.0 ], [ 575708.0, 5240916.0 ], [ 575708.0, 5240917.0 ], [ 575709.0, 5240917.0 ], [ 575709.0, 5240918.0 ], [ 575710.0, 5240918.0 ], [ 575711.0, 5240920.0 ], [ 575710.0, 5240920.0 ], [ 575709.0, 5240922.0 ], [ 575707.0, 5240922.0 ], [ 575707.0, 5240923.0 ], [ 575706.0, 5240923.0 ], [ 575705.0, 5240925.0 ], [ 575706.0, 5240925.0 ], [ 575706.0, 5240926.0 ], [ 575708.0, 5240926.0 ], [ 575708.0, 5240927.0 ], [ 575716.0, 5240928.0 ], [ 575716.0, 5240929.0 ], [ 575717.0, 5240929.0 ], [ 575717.0, 5240930.0 ], [ 575719.0, 5240931.0 ], [ 575719.0, 5240933.0 ], [ 575717.0, 5240934.0 ], [ 575717.0, 5240936.0 ], [ 575720.0, 5240936.0 ], [ 575721.0, 5240938.0 ], [ 575723.0, 5240938.0 ], [ 575723.0, 5240939.0 ], [ 575725.0, 5240940.0 ], [ 575725.0, 5240942.0 ], [ 575727.0, 5240943.0 ], [ 575727.0, 5240949.0 ], [ 575728.0, 5240949.0 ], [ 575728.0, 5240956.0 ], [ 575729.0, 5240956.0 ], [ 575729.0, 5240960.0 ], [ 575728.0, 5240960.0 ], [ 575728.0, 5240965.0 ], [ 575727.0, 5240965.0 ], [ 575727.0, 5240969.0 ], [ 575728.0, 5240969.0 ], [ 575728.0, 5240975.0 ], [ 575727.0, 5240975.0 ], [ 575727.0, 5240980.0 ], [ 575728.0, 5240980.0 ], [ 575728.0, 5240992.0 ], [ 575729.0, 5240992.0 ], [ 575729.0, 5240993.0 ], [ 575728.0, 5240993.0 ], [ 575728.0, 5240997.0 ], [ 575729.0, 5240997.0 ], [ 575729.0, 5240999.0 ], [ 575730.0, 5240999.0 ], [ 575730.0, 5241001.0 ], [ 575731.0, 5241001.0 ], [ 575731.0, 5241003.0 ], [ 575732.0, 5241003.0 ], [ 575732.0, 5241006.0 ], [ 575733.0, 5241006.0 ], [ 575733.0, 5241008.0 ], [ 575734.0, 5241008.0 ], [ 575734.0, 5241012.0 ], [ 575735.0, 5241012.0 ], [ 575735.0, 5241016.0 ], [ 575736.0, 5241016.0 ], [ 575737.0, 5241024.0 ], [ 575738.0, 5241024.0 ], [ 575738.0, 5241026.0 ], [ 575739.0, 5241026.0 ], [ 575739.0, 5241033.0 ], [ 575738.0, 5241033.0 ], [ 575739.0, 5241043.0 ], [ 575740.0, 5241043.0 ], [ 575740.0, 5241045.0 ], [ 575741.0, 5241045.0 ], [ 575741.0, 5241047.0 ], [ 575742.0, 5241047.0 ], [ 575742.0, 5241050.0 ], [ 575741.0, 5241050.0 ], [ 575741.0, 5241053.0 ], [ 575740.0, 5241053.0 ], [ 575740.0, 5241055.0 ], [ 575739.0, 5241055.0 ], [ 575738.0, 5241057.0 ], [ 575736.0, 5241057.0 ], [ 575736.0, 5241058.0 ], [ 575735.0, 5241058.0 ], [ 575735.0, 5241060.0 ], [ 575733.0, 5241061.0 ], [ 575733.0, 5241063.0 ], [ 575732.0, 5241063.0 ], [ 575732.0, 5241064.0 ], [ 575731.0, 5241064.0 ], [ 575730.0, 5241066.0 ], [ 575727.0, 5241066.0 ], [ 575727.0, 5241067.0 ], [ 575725.0, 5241067.0 ], [ 575725.0, 5241068.0 ], [ 575723.0, 5241069.0 ], [ 575723.0, 5241072.0 ], [ 575722.0, 5241072.0 ], [ 575722.0, 5241076.0 ], [ 575721.0, 5241076.0 ], [ 575721.0, 5241081.0 ], [ 575720.0, 5241081.0 ], [ 575720.0, 5241083.0 ], [ 575721.0, 5241083.0 ], [ 575721.0, 5241086.0 ], [ 575722.0, 5241086.0 ], [ 575722.0, 5241087.0 ], [ 575731.0, 5241087.0 ], [ 575731.0, 5241088.0 ], [ 575733.0, 5241088.0 ], [ 575733.0, 5241089.0 ], [ 575734.0, 5241089.0 ], [ 575734.0, 5241088.0 ], [ 575738.0, 5241088.0 ], [ 575738.0, 5241089.0 ], [ 575739.0, 5241089.0 ], [ 575739.0, 5241088.0 ], [ 575741.0, 5241088.0 ], [ 575741.0, 5241089.0 ], [ 575743.0, 5241089.0 ], [ 575743.0, 5241090.0 ], [ 575745.0, 5241091.0 ], [ 575745.0, 5241092.0 ], [ 575744.0, 5241092.0 ], [ 575744.0, 5241093.0 ], [ 575743.0, 5241093.0 ], [ 575743.0, 5241094.0 ], [ 575741.0, 5241095.0 ], [ 575741.0, 5241099.0 ], [ 575740.0, 5241099.0 ], [ 575740.0, 5241105.0 ], [ 575739.0, 5241105.0 ], [ 575739.0, 5241112.0 ], [ 575738.0, 5241112.0 ], [ 575738.0, 5241115.0 ], [ 575737.0, 5241115.0 ], [ 575737.0, 5241126.0 ], [ 575738.0, 5241126.0 ], [ 575738.0, 5241131.0 ], [ 575739.0, 5241131.0 ], [ 575739.0, 5241135.0 ], [ 575740.0, 5241135.0 ], [ 575740.0, 5241137.0 ], [ 575741.0, 5241137.0 ], [ 575741.0, 5241140.0 ], [ 575742.0, 5241140.0 ], [ 575742.0, 5241145.0 ], [ 575743.0, 5241145.0 ], [ 575743.0, 5241147.0 ], [ 575745.0, 5241148.0 ], [ 575745.0, 5241156.0 ], [ 575746.0, 5241156.0 ], [ 575746.0, 5241157.0 ], [ 575745.0, 5241157.0 ], [ 575745.0, 5241158.0 ], [ 575744.0, 5241158.0 ], [ 575743.0, 5241160.0 ], [ 575741.0, 5241160.0 ], [ 575741.0, 5241161.0 ], [ 575737.0, 5241161.0 ] ] ] } },
{ "type": "Feature", "properties": { "name": "South stockpile", "kind": "pile", "source_survey": "osmre2023", "relief_m": 1.0, "pad_m": 2.0, "edge_contact": 0.097 }, "geometry": { "type": "Polygon", "coordinates": [ [ [ 575754.0, 5240910.0 ], [ 575754.0, 5240909.0 ], [ 575753.0, 5240909.0 ], [ 575753.0, 5240900.0 ], [ 575744.0, 5240900.0 ], [ 575744.0, 5240901.0 ], [ 575743.0, 5240901.0 ], [ 575742.0, 5240903.0 ], [ 575739.0, 5240903.0 ], [ 575739.0, 5240902.0 ], [ 575737.0, 5240901.0 ], [ 575737.0, 5240893.0 ], [ 575738.0, 5240893.0 ], [ 575738.0, 5240884.0 ], [ 575739.0, 5240884.0 ], [ 575739.0, 5240879.0 ], [ 575738.0, 5240879.0 ], [ 575738.0, 5240877.0 ], [ 575721.0, 5240877.0 ], [ 575721.0, 5240878.0 ], [ 575711.0, 5240878.0 ], [ 575711.0, 5240879.0 ], [ 575706.0, 5240879.0 ], [ 575706.0, 5240878.0 ], [ 575703.0, 5240878.0 ], [ 575702.0, 5240880.0 ], [ 575701.0, 5240880.0 ], [ 575700.0, 5240878.0 ], [ 575693.0, 5240878.0 ], [ 575693.0, 5240879.0 ], [ 575695.0, 5240879.0 ], [ 575695.0, 5240880.0 ], [ 575697.0, 5240880.0 ], [ 575697.0, 5240881.0 ], [ 575700.0, 5240881.0 ], [ 575700.0, 5240882.0 ], [ 575702.0, 5240882.0 ], [ 575702.0, 5240883.0 ], [ 575704.0, 5240883.0 ], [ 575704.0, 5240884.0 ], [ 575708.0, 5240885.0 ], [ 575708.0, 5240886.0 ], [ 575710.0, 5240887.0 ], [ 575710.0, 5240890.0 ], [ 575709.0, 5240890.0 ], [ 575708.0, 5240892.0 ], [ 575703.0, 5240892.0 ], [ 575703.0, 5240893.0 ], [ 575701.0, 5240893.0 ], [ 575701.0, 5240894.0 ], [ 575698.0, 5240894.0 ], [ 575698.0, 5240895.0 ], [ 575688.0, 5240896.0 ], [ 575688.0, 5240897.0 ], [ 575686.0, 5240897.0 ], [ 575686.0, 5240898.0 ], [ 575684.0, 5240898.0 ], [ 575684.0, 5240899.0 ], [ 575669.0, 5240899.0 ], [ 575669.0, 5240898.0 ], [ 575665.0, 5240898.0 ], [ 575665.0, 5240897.0 ], [ 575663.0, 5240897.0 ], [ 575663.0, 5240896.0 ], [ 575659.0, 5240896.0 ], [ 575659.0, 5240895.0 ], [ 575655.0, 5240894.0 ], [ 575654.0, 5240892.0 ], [ 575652.0, 5240892.0 ], [ 575652.0, 5240891.0 ], [ 575650.0, 5240891.0 ], [ 575650.0, 5240890.0 ], [ 575649.0, 5240890.0 ], [ 575649.0, 5240891.0 ], [ 575648.0, 5240891.0 ], [ 575648.0, 5240890.0 ], [ 575641.0, 5240890.0 ], [ 575641.0, 5240889.0 ], [ 575635.0, 5240889.0 ], [ 575635.0, 5240890.0 ], [ 575632.0, 5240890.0 ], [ 575631.0, 5240888.0 ], [ 575629.0, 5240888.0 ], [ 575629.0, 5240887.0 ], [ 575626.0, 5240887.0 ], [ 575626.0, 5240886.0 ], [ 575625.0, 5240886.0 ], [ 575625.0, 5240885.0 ], [ 575624.0, 5240885.0 ], [ 575624.0, 5240884.0 ], [ 575622.0, 5240883.0 ], [ 575622.0, 5240880.0 ], [ 575620.0, 5240880.0 ], [ 575619.0, 5240878.0 ], [ 575616.0, 5240878.0 ], [ 575616.0, 5240877.0 ], [ 575613.0, 5240877.0 ], [ 575612.0, 5240879.0 ], [ 575608.0, 5240879.0 ], [ 575608.0, 5240878.0 ], [ 575602.0, 5240878.0 ], [ 575602.0, 5240877.0 ], [ 575599.0, 5240877.0 ], [ 575599.0, 5240876.0 ], [ 575593.0, 5240875.0 ], [ 575593.0, 5240874.0 ], [ 575591.0, 5240873.0 ], [ 575591.0, 5240871.0 ], [ 575590.0, 5240871.0 ], [ 575590.0, 5240870.0 ], [ 575589.0, 5240870.0 ], [ 575589.0, 5240869.0 ], [ 575588.0, 5240869.0 ], [ 575587.0, 5240867.0 ], [ 575578.0, 5240867.0 ], [ 575578.0, 5240866.0 ], [ 575575.0, 5240866.0 ], [ 575575.0, 5240865.0 ], [ 575573.0, 5240865.0 ], [ 575573.0, 5240866.0 ], [ 575570.0, 5240866.0 ], [ 575570.0, 5240867.0 ], [ 575568.0, 5240867.0 ], [ 575568.0, 5240868.0 ], [ 575547.0, 5240868.0 ], [ 575547.0, 5240867.0 ], [ 575539.0, 5240867.0 ], [ 575539.0, 5240868.0 ], [ 575536.0, 5240868.0 ], [ 575536.0, 5240869.0 ], [ 575525.0, 5240869.0 ], [ 575525.0, 5240870.0 ], [ 575517.0, 5240870.0 ], [ 575517.0, 5240869.0 ], [ 575514.0, 5240869.0 ], [ 575514.0, 5240868.0 ], [ 575505.0, 5240868.0 ], [ 575504.0, 5240870.0 ], [ 575497.0, 5240870.0 ], [ 575497.0, 5240871.0 ], [ 575486.0, 5240871.0 ], [ 575486.0, 5240870.0 ], [ 575480.0, 5240870.0 ], [ 575480.0, 5240871.0 ], [ 575470.0, 5240871.0 ], [ 575470.0, 5240872.0 ], [ 575468.0, 5240872.0 ], [ 575468.0, 5240871.0 ], [ 575467.0, 5240871.0 ], [ 575467.0, 5240870.0 ], [ 575465.0, 5240870.0 ], [ 575465.0, 5240869.0 ], [ 575459.0, 5240869.0 ], [ 575458.0, 5240867.0 ], [ 575455.0, 5240867.0 ], [ 575455.0, 5240866.0 ], [ 575450.0, 5240866.0 ], [ 575450.0, 5240867.0 ], [ 575448.0, 5240867.0 ], [ 575448.0, 5240868.0 ], [ 575445.0, 5240868.0 ], [ 575445.0, 5240869.0 ], [ 575442.0, 5240869.0 ], [ 575442.0, 5240870.0 ], [ 575439.0, 5240870.0 ], [ 575439.0, 5240871.0 ], [ 575434.0, 5240871.0 ], [ 575434.0, 5240872.0 ], [ 575427.0, 5240872.0 ], [ 575427.0, 5240871.0 ], [ 575426.0, 5240871.0 ], [ 575426.0, 5240872.0 ], [ 575422.0, 5240872.0 ], [ 575422.0, 5240873.0 ], [ 575421.0, 5240873.0 ], [ 575420.0, 5240875.0 ], [ 575417.0, 5240875.0 ], [ 575417.0, 5240876.0 ], [ 575413.0, 5240876.0 ], [ 575413.0, 5240877.0 ], [ 575410.0, 5240877.0 ], [ 575410.0, 5240878.0 ], [ 575406.0, 5240878.0 ], [ 575406.0, 5240879.0 ], [ 575398.0, 5240879.0 ], [ 575398.0, 5240878.0 ], [ 575396.0, 5240878.0 ], [ 575396.0, 5240877.0 ], [ 575392.0, 5240877.0 ], [ 575392.0, 5240876.0 ], [ 575390.0, 5240875.0 ], [ 575390.0, 5240862.0 ], [ 575391.0, 5240862.0 ], [ 575391.0, 5240861.0 ], [ 575390.0, 5240861.0 ], [ 575390.0, 5240849.0 ], [ 575391.0, 5240849.0 ], [ 575391.0, 5240848.0 ], [ 575392.0, 5240848.0 ], [ 575392.0, 5240847.0 ], [ 575393.0, 5240847.0 ], [ 575393.0, 5240846.0 ], [ 575394.0, 5240846.0 ], [ 575394.0, 5240845.0 ], [ 575395.0, 5240845.0 ], [ 575396.0, 5240843.0 ], [ 575398.0, 5240843.0 ], [ 575398.0, 5240842.0 ], [ 575401.0, 5240842.0 ], [ 575401.0, 5240841.0 ], [ 575405.0, 5240841.0 ], [ 575405.0, 5240840.0 ], [ 575411.0, 5240839.0 ], [ 575411.0, 5240838.0 ], [ 575413.0, 5240838.0 ], [ 575413.0, 5240837.0 ], [ 575416.0, 5240837.0 ], [ 575416.0, 5240833.0 ], [ 575415.0, 5240833.0 ], [ 575415.0, 5240830.0 ], [ 575414.0, 5240830.0 ], [ 575414.0, 5240828.0 ], [ 575413.0, 5240828.0 ], [ 575412.0, 5240822.0 ], [ 575411.0, 5240822.0 ], [ 575411.0, 5240821.0 ], [ 575409.0, 5240820.0 ], [ 575409.0, 5240817.0 ], [ 575410.0, 5240817.0 ], [ 575410.0, 5240815.0 ], [ 575411.0, 5240815.0 ], [ 575412.0, 5240813.0 ], [ 575415.0, 5240813.0 ], [ 575415.0, 5240810.0 ], [ 575414.0, 5240810.0 ], [ 575414.0, 5240808.0 ], [ 575413.0, 5240808.0 ], [ 575413.0, 5240806.0 ], [ 575412.0, 5240806.0 ], [ 575412.0, 5240804.0 ], [ 575411.0, 5240804.0 ], [ 575410.0, 5240800.0 ], [ 575408.0, 5240799.0 ], [ 575408.0, 5240797.0 ], [ 575407.0, 5240797.0 ], [ 575407.0, 5240795.0 ], [ 575406.0, 5240795.0 ], [ 575405.0, 5240791.0 ], [ 575404.0, 5240791.0 ], [ 575404.0, 5240790.0 ], [ 575402.0, 5240789.0 ], [ 575402.0, 5240788.0 ], [ 575403.0, 5240788.0 ], [ 575404.0, 5240786.0 ], [ 575406.0, 5240786.0 ], [ 575406.0, 5240787.0 ], [ 575407.0, 5240787.0 ], [ 575407.0, 5240788.0 ], [ 575408.0, 5240788.0 ], [ 575408.0, 5240789.0 ], [ 575409.0, 5240789.0 ], [ 575409.0, 5240790.0 ], [ 575411.0, 5240791.0 ], [ 575411.0, 5240789.0 ], [ 575410.0, 5240789.0 ], [ 575410.0, 5240786.0 ], [ 575409.0, 5240786.0 ], [ 575409.0, 5240784.0 ], [ 575410.0, 5240784.0 ], [ 575410.0, 5240783.0 ], [ 575412.0, 5240782.0 ], [ 575412.0, 5240780.0 ], [ 575411.0, 5240780.0 ], [ 575410.0, 5240776.0 ], [ 575408.0, 5240775.0 ], [ 575408.0, 5240773.0 ], [ 575406.0, 5240772.0 ], [ 575406.0, 5240769.0 ], [ 575405.0, 5240769.0 ], [ 575405.0, 5240768.0 ], [ 575404.0, 5240768.0 ], [ 575404.0, 5240767.0 ], [ 575402.0, 5240766.0 ], [ 575402.0, 5240764.0 ], [ 575401.0, 5240764.0 ], [ 575401.0, 5240760.0 ], [ 575399.0, 5240759.0 ], [ 575399.0, 5240753.0 ], [ 575398.0, 5240753.0 ], [ 575399.0, 5240749.0 ], [ 575398.0, 5240749.0 ], [ 575398.0, 5240748.0 ], [ 575396.0, 5240748.0 ], [ 575396.0, 5240747.0 ], [ 575395.0, 5240747.0 ], [ 575395.0, 5240746.0 ], [ 575393.0, 5240745.0 ], [ 575393.0, 5240744.0 ], [ 575394.0, 5240744.0 ], [ 575394.0, 5240742.0 ], [ 575395.0, 5240742.0 ], [ 575395.0, 5240732.0 ], [ 575394.0, 5240732.0 ], [ 575394.0, 5240730.0 ], [ 575395.0, 5240730.0 ], [ 575395.0, 5240729.0 ], [ 575394.0, 5240729.0 ], [ 575394.0, 5240727.0 ], [ 575395.0, 5240727.0 ], [ 575395.0, 5240722.0 ], [ 575394.0, 5240722.0 ], [ 575394.0, 5240721.0 ], [ 575395.0, 5240721.0 ], [ 575395.0, 5240719.0 ], [ 575394.0, 5240719.0 ], [ 575394.0, 5240717.0 ], [ 575393.0, 5240717.0 ], [ 575393.0, 5240715.0 ], [ 575392.0, 5240715.0 ], [ 575392.0, 5240711.0 ], [ 575391.0, 5240711.0 ], [ 575391.0, 5240706.0 ], [ 575390.0, 5240706.0 ], [ 575390.0, 5240696.0 ], [ 575391.0, 5240696.0 ], [ 575391.0, 5240695.0 ], [ 575390.0, 5240695.0 ], [ 575390.0, 5240693.0 ], [ 575391.0, 5240693.0 ], [ 575390.0, 5240675.0 ], [ 575391.0, 5240675.0 ], [ 575391.0, 5240674.0 ], [ 575393.0, 5240674.0 ], [ 575393.0, 5240673.0 ], [ 575394.0, 5240673.0 ], [ 575394.0, 5240670.0 ], [ 575395.0, 5240670.0 ], [ 575395.0, 5240669.0 ], [ 575396.0, 5240669.0 ], [ 575397.0, 5240667.0 ], [ 575399.0, 5240667.0 ], [ 575399.0, 5240666.0 ], [ 575400.0, 5240666.0 ], [ 575401.0, 5240664.0 ], [ 575404.0, 5240664.0 ], [ 575404.0, 5240663.0 ], [ 575406.0, 5240663.0 ], [ 575406.0, 5240662.0 ], [ 575409.0, 5240662.0 ], [ 575409.0, 5240661.0 ], [ 575414.0, 5240661.0 ], [ 575414.0, 5240660.0 ], [ 575428.0, 5240660.0 ], [ 575428.0, 5240659.0 ], [ 575430.0, 5240660.0 ], [ 575430.0, 5240659.0 ], [ 575442.0, 5240659.0 ], [ 575442.0, 5240658.0 ], [ 575453.0, 5240658.0 ], [ 575453.0, 5240657.0 ], [ 575467.0, 5240657.0 ], [ 575467.0, 5240658.0 ], [ 575481.0, 5240658.0 ], [ 575481.0, 5240657.0 ], [ 575482.0, 5240657.0 ], [ 575482.0, 5240658.0 ], [ 575484.0, 5240658.0 ], [ 575484.0, 5240657.0 ], [ 575492.0, 5240656.0 ], [ 575492.0, 5240655.0 ], [ 575494.0, 5240655.0 ], [ 575494.0, 5240654.0 ], [ 575498.0, 5240654.0 ], [ 575498.0, 5240653.0 ], [ 575522.0, 5240653.0 ], [ 575522.0, 5240652.0 ], [ 575531.0, 5240652.0 ], [ 575531.0, 5240651.0 ], [ 575547.0, 5240651.0 ], [ 575547.0, 5240652.0 ], [ 575563.0, 5240653.0 ], [ 575563.0, 5240652.0 ], [ 575569.0, 5240652.0 ], [ 575569.0, 5240651.0 ], [ 575584.0, 5240651.0 ], [ 575584.0, 5240650.0 ], [ 575609.0, 5240650.0 ], [ 575609.0, 5240649.0 ], [ 575623.0, 5240649.0 ], [ 575623.0, 5240648.0 ], [ 575654.0, 5240648.0 ], [ 575654.0, 5240649.0 ], [ 575660.0, 5240649.0 ], [ 575660.0, 5240650.0 ], [ 575684.0, 5240650.0 ], [ 575684.0, 5240649.0 ], [ 575685.0, 5240649.0 ], [ 575685.0, 5240650.0 ], [ 575707.0, 5240650.0 ], [ 575707.0, 5240649.0 ], [ 575721.0, 5240649.0 ], [ 575721.0, 5240648.0 ], [ 575772.0, 5240648.0 ], [ 575772.0, 5240647.0 ], [ 575800.0, 5240647.0 ], [ 575800.0, 5240646.0 ], [ 575806.0, 5240646.0 ], [ 575806.0, 5240645.0 ], [ 575829.0, 5240645.0 ], [ 575829.0, 5240644.0 ], [ 575834.0, 5240644.0 ], [ 575834.0, 5240645.0 ], [ 575845.0, 5240645.0 ], [ 575845.0, 5240646.0 ], [ 575848.0, 5240646.0 ], [ 575848.0, 5240647.0 ], [ 575851.0, 5240647.0 ], [ 575851.0, 5240648.0 ], [ 575853.0, 5240648.0 ], [ 575853.0, 5240649.0 ], [ 575854.0, 5240649.0 ], [ 575854.0, 5240650.0 ], [ 575856.0, 5240650.0 ], [ 575856.0, 5240651.0 ], [ 575858.0, 5240651.0 ], [ 575858.0, 5240650.0 ], [ 575861.0, 5240650.0 ], [ 575861.0, 5240651.0 ], [ 575862.0, 5240651.0 ], [ 575862.0, 5240652.0 ], [ 575864.0, 5240653.0 ], [ 575864.0, 5240654.0 ], [ 575863.0, 5240654.0 ], [ 575863.0, 5240657.0 ], [ 575864.0, 5240657.0 ], [ 575864.0, 5240658.0 ], [ 575866.0, 5240659.0 ], [ 575865.0, 5240667.0 ], [ 575866.0, 5240667.0 ], [ 575866.0, 5240668.0 ], [ 575867.0, 5240668.0 ], [ 575867.0, 5240669.0 ], [ 575869.0, 5240670.0 ], [ 575869.0, 5240673.0 ], [ 575870.0, 5240673.0 ], [ 575870.0, 5240677.0 ], [ 575868.0, 5240678.0 ], [ 575868.0, 5240683.0 ], [ 575867.0, 5240683.0 ], [ 575867.0, 5240686.0 ], [ 575866.0, 5240686.0 ], [ 575866.0, 5240687.0 ], [ 575864.0, 5240688.0 ], [ 575864.0, 5240692.0 ], [ 575865.0, 5240692.0 ], [ 575864.0, 5240694.0 ], [ 575865.0, 5240694.0 ], [ 575865.0, 5240696.0 ], [ 575866.0, 5240696.0 ], [ 575866.0, 5240697.0 ], [ 575867.0, 5240697.0 ], [ 575867.0, 5240699.0 ], [ 575868.0, 5240699.0 ], [ 575868.0, 5240703.0 ], [ 575867.0, 5240703.0 ], [ 575867.0, 5240705.0 ], [ 575865.0, 5240706.0 ], [ 575865.0, 5240708.0 ], [ 575864.0, 5240708.0 ], [ 575864.0, 5240711.0 ], [ 575863.0, 5240711.0 ], [ 575863.0, 5240713.0 ], [ 575862.0, 5240713.0 ], [ 575862.0, 5240716.0 ], [ 575864.0, 5240717.0 ], [ 575864.0, 5240720.0 ], [ 575863.0, 5240720.0 ], [ 575863.0, 5240721.0 ], [ 575861.0, 5240722.0 ], [ 575861.0, 5240733.0 ], [ 575862.0, 5240733.0 ], [ 575862.0, 5240736.0 ], [ 575861.0, 5240736.0 ], [ 575861.0, 5240746.0 ], [ 575862.0, 5240746.0 ], [ 575862.0, 5240748.0 ], [ 575863.0, 5240748.0 ], [ 575863.0, 5240750.0 ], [ 575862.0, 5240750.0 ], [ 575862.0, 5240770.0 ], [ 575863.0, 5240770.0 ], [ 575863.0, 5240771.0 ], [ 575864.0, 5240771.0 ], [ 575864.0, 5240772.0 ], [ 575866.0, 5240773.0 ], [ 575866.0, 5240776.0 ], [ 575865.0, 5240776.0 ], [ 575865.0, 5240778.0 ], [ 575864.0, 5240778.0 ], [ 575864.0, 5240783.0 ], [ 575862.0, 5240784.0 ], [ 575862.0, 5240786.0 ], [ 575861.0, 5240786.0 ], [ 575861.0, 5240787.0 ], [ 575860.0, 5240787.0 ], [ 575860.0, 5240788.0 ], [ 575859.0, 5240788.0 ], [ 575859.0, 5240789.0 ], [ 575858.0, 5240789.0 ], [ 575858.0, 5240790.0 ], [ 575857.0, 5240790.0 ], [ 575857.0, 5240791.0 ], [ 575856.0, 5240791.0 ], [ 575855.0, 5240793.0 ], [ 575853.0, 5240793.0 ], [ 575853.0, 5240795.0 ], [ 575851.0, 5240796.0 ], [ 575851.0, 5240798.0 ], [ 575850.0, 5240798.0 ], [ 575850.0, 5240799.0 ], [ 575849.0, 5240799.0 ], [ 575849.0, 5240800.0 ], [ 575847.0, 5240801.0 ], [ 575847.0, 5240804.0 ], [ 575846.0, 5240804.0 ], [ 575846.0, 5240805.0 ], [ 575845.0, 5240805.0 ], [ 575845.0, 5240806.0 ], [ 575844.0, 5240806.0 ], [ 575844.0, 5240807.0 ], [ 575842.0, 5240808.0 ], [ 575842.0, 5240810.0 ], [ 575841.0, 5240810.0 ], [ 575841.0, 5240812.0 ], [ 575839.0, 5240813.0 ], [ 575839.0, 5240815.0 ], [ 575838.0, 5240815.0 ], [ 575838.0, 5240816.0 ], [ 575837.0, 5240816.0 ], [ 575837.0, 5240817.0 ], [ 575836.0, 5240817.0 ], [ 575836.0, 5240818.0 ], [ 575835.0, 5240818.0 ], [ 575835.0, 5240819.0 ], [ 575834.0, 5240819.0 ], [ 575834.0, 5240820.0 ], [ 575833.0, 5240820.0 ], [ 575833.0, 5240821.0 ], [ 575831.0, 5240822.0 ], [ 575831.0, 5240824.0 ], [ 575829.0, 5240825.0 ], [ 575829.0, 5240827.0 ], [ 575828.0, 5240827.0 ], [ 575827.0, 5240829.0 ], [ 575821.0, 5240829.0 ], [ 575821.0, 5240830.0 ], [ 575819.0, 5240830.0 ], [ 575819.0, 5240831.0 ], [ 575817.0, 5240831.0 ], [ 575817.0, 5240832.0 ], [ 575813.0, 5240833.0 ], [ 575812.0, 5240835.0 ], [ 575810.0, 5240835.0 ], [ 575810.0, 5240836.0 ], [ 575808.0, 5240836.0 ], [ 575808.0, 5240837.0 ], [ 575804.0, 5240838.0 ], [ 575803.0, 5240840.0 ], [ 575801.0, 5240840.0 ], [ 575801.0, 5240841.0 ], [ 575797.0, 5240841.0 ], [ 575797.0, 5240842.0 ], [ 575796.0, 5240842.0 ], [ 575796.0, 5240843.0 ], [ 575795.0, 5240843.0 ], [ 575794.0, 5240845.0 ], [ 575790.0, 5240846.0 ], [ 575790.0, 5240851.0 ], [ 575789.0, 5240851.0 ], [ 575789.0, 5240852.0 ], [ 575788.0, 5240852.0 ], [ 575787.0, 5240854.0 ], [ 575785.0, 5240854.0 ], [ 575785.0, 5240855.0 ], [ 575783.0, 5240856.0 ], [ 575782.0, 5240860.0 ], [ 575781.0, 5240860.0 ], [ 575781.0, 5240861.0 ], [ 575782.0, 5240861.0 ], [ 575782.0, 5240865.0 ], [ 575783.0, 5240865.0 ], [ 575783.0, 5240869.0 ], [ 575782.0, 5240869.0 ], [ 575782.0, 5240872.0 ], [ 575781.0, 5240872.0 ], [ 575781.0, 5240874.0 ], [ 575780.0, 5240874.0 ], [ 575780.0, 5240877.0 ], [ 575781.0, 5240877.0 ], [ 575781.0, 5240878.0 ], [ 575780.0, 5240878.0 ], [ 575780.0, 5240881.0 ], [ 575779.0, 5240881.0 ], [ 575779.0, 5240882.0 ], [ 575778.0, 5240882.0 ], [ 575778.0, 5240884.0 ], [ 575777.0, 5240884.0 ], [ 575777.0, 5240885.0 ], [ 575778.0, 5240885.0 ], [ 575779.0, 5240887.0 ], [ 575778.0, 5240887.0 ], [ 575778.0, 5240888.0 ], [ 575777.0, 5240888.0 ], [ 575777.0, 5240889.0 ], [ 575776.0, 5240889.0 ], [ 575775.0, 5240891.0 ], [ 575773.0, 5240891.0 ], [ 575773.0, 5240892.0 ], [ 575772.0, 5240892.0 ], [ 575771.0, 5240894.0 ], [ 575767.0, 5240895.0 ], [ 575767.0, 5240898.0 ], [ 575766.0, 5240898.0 ], [ 575766.0, 5240899.0 ], [ 575765.0, 5240899.0 ], [ 575765.0, 5240901.0 ], [ 575764.0, 5240901.0 ], [ 575764.0, 5240902.0 ], [ 575763.0, 5240902.0 ], [ 575763.0, 5240903.0 ], [ 575761.0, 5240904.0 ], [ 575761.0, 5240906.0 ], [ 575759.0, 5240907.0 ], [ 575759.0, 5240909.0 ], [ 575758.0, 5240909.0 ], [ 575758.0, 5240910.0 ], [ 575754.0, 5240910.0 ] ] ] } }
]
}
